{"type":"FeatureCollection","crs":{"type":"name","properties":{"name":"urn:ogc:def:crs:OGC:1.3:CRS84"}}, "features": [
{"type":"Feature","geometry":{"type":"Polygon","coordinates":[[[-8.6676,27.13613],[-8.66667,27.03333],[-8.66694,26.76611],[-8.66667,26.59972],[-8.66694,26.33333],[-8.66722,26.19944],[-8.66639,26.06639],[-8.66694,26.00028],[-8.76694,25.99972],[-9.06694,25.99972],[-9.23333,26.00028],[-9.4,25.99944],[-9.43361,26],[-9.66667,25.99972],[-9.93361,25.99944],[-10.13389,25.99972],[-10.36694,25.99972],[-10.5564,25.99991],[-10.70056,26.00028],[-10.73333,25.99944],[-10.88108,25.99986],[-11.10207,25.99941],[-11.38932,25.99883],[-11.59854,25.9984],[-11.63387,25.99904],[-11.80017,25.99917],[-12.00056,26],[-12,25.66611],[-12.00083,25.6325],[-12.00056,25.46611],[-12,25.23278],[-12.00083,25.2],[-12.00056,25.03278],[-12,24.79972],[-12.00083,24.76611],[-12.00028,24.56611],[-12,24.38543],[-12.11303,24.4159],[-12.20216,24.43219],[-12.26426,24.43854],[-12.31934,24.43286],[-12.35955,24.41968],[-12.53947,24.38359],[-12.58121,24.38006],[-12.61125,24.38325],[-12.63508,24.38949],[-12.68522,24.40726],[-12.73037,24.42722],[-12.85552,24.4693],[-12.88662,24.48162],[-12.93554,24.49115],[-13.05159,24.51567],[-13.12025,24.52723],[-13.295,24.51271],[-13.43713,24.46669],[-13.51335,24.43356],[-13.64106,24.40355],[-13.68897,24.39051],[-13.7348,24.39989],[-13.81152,24.42824],[-13.99297,24.47028],[-14.07589,24.48397],[-14.17236,24.47912],[-14.23907,24.47759],[-14.30482,24.47311],[-14.34197,24.46475],[-14.50611,24.41613],[-14.56317,24.43267],[-14.59046,24.4545],[-14.60934,24.475],[-14.6217,24.49873],[-14.66376,24.52589],[-14.70444,24.5383],[-14.74738,24.5443],[-14.78525,24.55486],[-14.82571,24.59007],[-14.86714,24.62211],[-14.88649,24.64254],[-14.90488,24.6832],[-14.88247,24.70313],[-14.8875,24.74174],[-14.8824,24.76979],[-14.87379,24.78986],[-14.8701,24.80968],[-14.85045,24.84904],[-14.82893,24.91028],[-14.83326,24.944],[-14.82645,24.96716],[-14.82385,25.00756],[-14.81856,25.04043],[-14.82719,25.07275],[-14.84056,25.083],[-14.83715,25.09947],[-14.84574,25.12618],[-14.83879,25.14039],[-14.83693,25.16646],[-14.84506,25.1989],[-14.84366,25.21125],[-14.8272,25.24566],[-14.82421,25.26085],[-14.82743,25.29668],[-14.81184,25.32254],[-14.81338,25.33824],[-14.79841,25.35986],[-14.79173,25.37658],[-14.79339,25.39872],[-14.78672,25.41944],[-14.76482,25.4528],[-14.73189,25.48665],[-14.71666,25.50906],[-14.69701,25.54519],[-14.68563,25.58034],[-14.68651,25.61618],[-14.67643,25.63516],[-14.67542,25.64703],[-14.66459,25.66539],[-14.66167,25.68927],[-14.65108,25.715],[-14.63315,25.77392],[-14.61648,25.78368],[-14.56537,25.8512],[-14.56217,25.86527],[-14.53428,25.90875],[-14.52592,25.93703],[-14.49635,25.99612],[-14.49325,26.02107],[-14.48749,26.03623],[-14.48904,26.07304],[-14.48501,26.09258],[-14.48989,26.10957],[-14.5007,26.12636],[-14.47489,26.17952],[-14.44848,26.21391],[-14.40159,26.26351],[-14.3456,26.27176],[-14.31733,26.28207],[-14.29019,26.307],[-14.27906,26.3117],[-14.2422,26.34101],[-14.23144,26.35702],[-14.2093,26.37774],[-14.17982,26.42633],[-14.14239,26.42534],[-14.1092,26.42951],[-14.06083,26.43925],[-14.01271,26.45519],[-13.9733,26.47333],[-13.91544,26.51817],[-13.87725,26.53492],[-13.84787,26.55527],[-13.82547,26.56383],[-13.78028,26.58931],[-13.74519,26.60573],[-13.67747,26.64526],[-13.62992,26.6791],[-13.5974,26.70752],[-13.56502,26.74219],[-13.5297,26.80383],[-13.5284,26.81565],[-13.49894,26.87528],[-13.4879,26.90805],[-13.4879,26.91958],[-13.47701,26.9521],[-13.44337,27.02372],[-13.41781,27.0852],[-13.4243,27.09692],[-13.41864,27.11087],[-13.40816,27.16444],[-13.37812,27.20838],[-13.36431,27.2378],[-13.32823,27.28316],[-13.30323,27.32736],[-13.30065,27.34585],[-13.28993,27.3591],[-13.27787,27.38416],[-13.26721,27.42107],[-13.24277,27.4807],[-13.23192,27.50088],[-13.218,27.55386],[-13.20743,27.57439],[-13.19602,27.62557],[-13.16754,27.67804],[-13.16224,27.6955],[-13.13087,27.70729],[-13.11349,27.72091],[-13.07191,27.73551],[-13.04313,27.7607],[-13.02481,27.79851],[-13.00962,27.80652],[-12.99723,27.85135],[-12.98988,27.85767],[-12.98052,27.89406],[-12.97104,27.89777],[-12.96039,27.92067],[-12.93727,27.93071],[-12.92988,27.94519],[-12.90785,27.95508],[-12.86264,27.95619],[-12.82683,27.9654],[-12.75167,27.97242],[-12.71592,27.97826],[-12.65934,27.98271],[-12.55094,27.99805],[-12.52001,28.00744],[-12.47356,28.01366],[-12.38905,28.02876],[-12.35348,28.03627],[-12.30724,28.04328],[-12.21569,28.06039],[-12.08254,28.08678],[-12.05,28.09708],[-12.02985,28.11284],[-11.98192,28.13238],[-11.94217,28.15304],[-11.89798,28.17082],[-11.84908,28.1865],[-11.80086,28.20665],[-11.78193,28.20961],[-11.77216,28.18136],[-11.74285,28.14766],[-11.71157,28.12348],[-11.69904,28.05877],[-11.66556,27.99222],[-11.63621,27.95219],[-11.58505,27.86588],[-11.55143,27.83624],[-11.48541,27.80705],[-11.40519,27.8043],[-11.3609,27.7961],[-11.30734,27.77985],[-11.25842,27.76801],[-11.22821,27.75844],[-11.18975,27.73838],[-11.11518,27.74563],[-11.07828,27.7508],[-10.96488,27.75707],[-10.92704,27.76097],[-10.90154,27.75753],[-10.87063,27.77394],[-10.78635,27.78641],[-10.75339,27.78268],[-10.71872,27.76785],[-10.63374,27.78092],[-10.60834,27.78107],[-10.5704,27.78578],[-10.4777,27.79398],[-10.41642,27.80476],[-10.27583,27.81394],[-10.24836,27.8095],[-10.21233,27.79906],[-10.13706,27.71403],[-10.11154,27.70055],[-10.09202,27.71048],[-10.05832,27.70977],[-10.04044,27.68767],[-10.03271,27.67088],[-10.01738,27.6543],[-9.98532,27.63821],[-9.96592,27.63472],[-9.93759,27.64008],[-9.91579,27.64822],[-9.89931,27.67348],[-9.88025,27.67207],[-9.86171,27.66189],[-9.83923,27.63513],[-9.81622,27.61294],[-9.81416,27.59117],[-9.7982,27.56897],[-9.76318,27.5365],[-9.71941,27.50686],[-9.68252,27.48844],[-9.60729,27.44567],[-9.54414,27.40229],[-9.44904,27.41502],[-9.40681,27.42374],[-9.28871,27.47211],[-9.17212,27.40948],[-9.06103,27.3139],[-8.97199,27.27829],[-8.92101,27.23102],[-8.87456,27.18319],[-8.80915,27.16043],[-8.75422,27.14715],[-8.6676,27.13613]]]},"properties":{"shapeName":"Laâyoune-Sakia El Hamra","shapeISO":"MA-11","shapeID":"70788906B89532291078161"}},
{"type":"Feature","geometry":{"type":"Polygon","coordinates":[[[-6.2434,35.00139],[-6.22325,35.05256],[-6.22057,35.06714],[-6.20208,35.1145],[-6.18115,35.15924],[-6.16884,35.19413],[-6.15099,35.20385],[-6.1109,35.30491],[-6.07871,35.39669],[-6.0625,35.42248],[-6.05014,35.45536],[-6.02812,35.47513],[-6.00986,35.52424],[-5.99842,35.56981],[-5.97267,35.6515],[-5.96865,35.6713],[-5.95541,35.70528],[-5.92569,35.7918],[-5.90756,35.80112],[-5.86337,35.79593],[-5.84798,35.80112],[-5.83318,35.79424],[-5.79704,35.78655],[-5.80488,35.78187],[-5.78172,35.77685],[-5.76891,35.78235],[-5.75177,35.79783],[-5.75022,35.81788],[-5.70856,35.82929],[-5.68976,35.83828],[-5.65029,35.82805],[-5.62783,35.83545],[-5.60432,35.83002],[-5.55307,35.84524],[-5.53049,35.86514],[-5.48747,35.89829],[-5.48235,35.90864],[-5.46523,35.9144],[-5.44163,35.90429],[-5.41601,35.90979],[-5.40319,35.92187],[-5.39287,35.90901],[-5.38212,35.91252],[-5.37276,35.88332],[-5.3434,35.8708],[-5.3534,35.83988],[-5.34865,35.78587],[-5.34018,35.73831],[-5.33229,35.70731],[-5.31886,35.683],[-5.29261,35.68738],[-5.27329,35.68646],[-5.28428,35.66598],[-5.26574,35.60383],[-5.24439,35.55481],[-5.22679,35.55046],[-5.21348,35.53802],[-5.20016,35.5414],[-5.17316,35.53138],[-5.15316,35.50458],[-5.10648,35.47721],[-5.06787,35.41488],[-5.05794,35.40514],[-5.02966,35.39941],[-5.01628,35.40341],[-4.98667,35.37307],[-4.97419,35.3665],[-4.93892,35.33444],[-4.92699,35.3182],[-4.90198,35.3066],[-4.87926,35.30015],[-4.8679,35.30186],[-4.84368,35.2775],[-4.8172,35.25754],[-4.79406,35.25039],[-4.78106,35.23734],[-4.74898,35.22411],[-4.67733,35.20465],[-4.66438,35.21178],[-4.64913,35.21087],[-4.63462,35.19771],[-4.60303,35.1876],[-4.59193,35.19172],[-4.51994,35.17518],[-4.4921,35.17604],[-4.46669,35.16484],[-4.42537,35.15423],[-4.40855,35.15854],[-4.37266,35.14812],[-4.35484,35.14746],[-4.33721,35.15819],[-4.32438,35.15833],[-4.30984,35.16851],[-4.30012,35.16733],[-4.28425,35.17797],[-4.25011,35.1883],[-4.21886,35.18383],[-4.18979,35.19827],[-4.16511,35.20185],[-4.156,35.1978],[-4.11682,35.20411],[-4.09051,35.21899],[-4.01594,35.2402],[-4.00456,35.23246],[-3.98112,35.23599],[-3.92757,35.26166],[-3.91438,35.25424],[-3.92464,35.24918],[-3.92251,35.23198],[-3.90688,35.21379],[-3.88394,35.20481],[-3.84651,35.19688],[-3.82389,35.19936],[-3.80269,35.1745],[-3.81257,35.15988],[-3.80607,35.15109],[-3.81397,35.11749],[-3.81495,35.09827],[-3.80947,35.07897],[-3.80943,35.05859],[-3.8154,35.04766],[-3.81601,35.01186],[-3.80617,34.9849],[-3.813,34.95985],[-3.82591,34.93428],[-3.81948,34.92961],[-3.82924,34.91919],[-3.82012,34.88753],[-3.82946,34.86818],[-3.90417,34.85023],[-3.91948,34.85165],[-3.92796,34.84144],[-4.0137,34.8237],[-4.03444,34.8261],[-4.05896,34.79801],[-4.09938,34.76415],[-4.1434,34.74404],[-4.1548,34.75791],[-4.17059,34.75138],[-4.21177,34.76723],[-4.24805,34.80668],[-4.26098,34.79387],[-4.30443,34.76181],[-4.29364,34.7515],[-4.29739,34.73927],[-4.31237,34.73188],[-4.31503,34.72272],[-4.34255,34.71118],[-4.35435,34.71251],[-4.38082,34.70567],[-4.41615,34.7108],[-4.42095,34.69175],[-4.44345,34.67102],[-4.49271,34.6922],[-4.50568,34.70114],[-4.51877,34.69739],[-4.5408,34.70172],[-4.57299,34.6827],[-4.57782,34.69955],[-4.58855,34.71512],[-4.62782,34.72373],[-4.65906,34.7231],[-4.66629,34.71863],[-4.72386,34.71904],[-4.75429,34.73461],[-4.77842,34.75027],[-4.78746,34.77279],[-4.78757,34.80136],[-4.79218,34.82354],[-4.79057,34.84275],[-4.80696,34.83496],[-4.86305,34.8252],[-4.88494,34.8333],[-4.92112,34.81447],[-4.9509,34.80772],[-4.97548,34.79421],[-5.01219,34.79322],[-5.01655,34.80058],[-5.09019,34.77982],[-5.11213,34.77628],[-5.12462,34.7674],[-5.14494,34.76529],[-5.18109,34.73905],[-5.1856,34.70633],[-5.18076,34.69257],[-5.18867,34.66967],[-5.18315,34.6592],[-5.18213,34.60688],[-5.19621,34.59734],[-5.18265,34.59388],[-5.18385,34.5842],[-5.19771,34.55843],[-5.25861,34.55604],[-5.26711,34.54215],[-5.25619,34.53251],[-5.28082,34.51478],[-5.31515,34.5159],[-5.3439,34.52735],[-5.38939,34.53714],[-5.38699,34.52268],[-5.39485,34.52191],[-5.40892,34.53362],[-5.42773,34.53673],[-5.43527,34.55828],[-5.42939,34.57361],[-5.41274,34.58665],[-5.42204,34.60828],[-5.44482,34.62362],[-5.49093,34.63208],[-5.4942,34.63854],[-5.51415,34.645],[-5.5284,34.63861],[-5.54084,34.66812],[-5.5491,34.67281],[-5.55183,34.69364],[-5.57582,34.69329],[-5.59009,34.7216],[-5.60826,34.72088],[-5.63429,34.72604],[-5.62929,34.73626],[-5.64423,34.74006],[-5.66663,34.73435],[-5.6825,34.71269],[-5.70508,34.71128],[-5.71458,34.70475],[-5.71058,34.71864],[-5.72851,34.73047],[-5.74417,34.72655],[-5.75385,34.73533],[-5.77623,34.73484],[-5.79486,34.75075],[-5.78155,34.77786],[-5.78731,34.78875],[-5.78415,34.82496],[-5.79086,34.83523],[-5.791,34.85067],[-5.78439,34.85283],[-5.77447,34.87411],[-5.79117,34.88754],[-5.78131,34.92789],[-5.83322,34.94364],[-5.87831,34.93398],[-5.91945,34.94096],[-5.96204,34.96998],[-6.007,34.99184],[-6.02638,34.97648],[-6.05377,34.97648],[-6.06684,34.99055],[-6.05799,34.99816],[-6.0748,35.0078],[-6.10021,35.01552],[-6.12677,35.01046],[-6.13852,34.99703],[-6.18586,34.98888],[-6.21405,34.99696],[-6.2434,35.00139]]]},"properties":{"shapeName":"Tangier-Tetouan-Al Hoceima","shapeISO":"MA-01","shapeID":"70788906B66040098455254"}},
{"type":"Feature","geometry":{"type":"Polygon","coordinates":[[[-3.82012,34.88753],[-3.82924,34.91919],[-3.81948,34.92961],[-3.82591,34.93428],[-3.813,34.95985],[-3.80617,34.9849],[-3.81601,35.01186],[-3.8154,35.04766],[-3.80943,35.05859],[-3.80947,35.07897],[-3.81495,35.09827],[-3.81397,35.11749],[-3.80607,35.15109],[-3.81257,35.15988],[-3.80269,35.1745],[-3.82389,35.19936],[-3.7898,35.20912],[-3.77099,35.22257],[-3.76478,35.2325],[-3.75816,35.2647],[-3.75245,35.27229],[-3.7096,35.28786],[-3.67916,35.28585],[-3.66579,35.26947],[-3.5931,35.22858],[-3.56553,35.21977],[-3.5378,35.21821],[-3.50828,35.20536],[-3.47474,35.19818],[-3.44848,35.20483],[-3.42587,35.19245],[-3.36481,35.18943],[-3.33506,35.18554],[-3.30507,35.20373],[-3.25908,35.21283],[-3.21747,35.22705],[-3.20273,35.22373],[-3.1652,35.24589],[-3.1342,35.28045],[-3.12472,35.2836],[-3.11017,35.2721],[-3.08355,35.28106],[-3.06671,35.29543],[-3.04884,35.31829],[-3.0221,35.36217],[-3.00417,35.39959],[-3.00994,35.40191],[-2.9952,35.4174],[-2.99299,35.43356],[-2.95521,35.43514],[-2.95004,35.4264],[-2.9637,35.40739],[-2.95948,35.38374],[-2.97078,35.3673],[-2.95641,35.34678],[-2.96148,35.33131],[-2.95269,35.31998],[-2.96005,35.31593],[-2.9702,35.2888],[-2.95054,35.26563],[-2.92771,35.27249],[-2.89826,35.24078],[-2.86235,35.21014],[-2.87303,35.20799],[-2.87724,35.21829],[-2.92179,35.25703],[-2.93124,35.23904],[-2.91654,35.21711],[-2.89959,35.21461],[-2.90397,35.20628],[-2.92529,35.19809],[-2.92288,35.18142],[-2.89846,35.14419],[-2.87899,35.13049],[-2.83199,35.10927],[-2.81092,35.10233],[-2.78465,35.10306],[-2.755,35.09823],[-2.74506,35.11313],[-2.77221,35.13477],[-2.78525,35.14077],[-2.7887,35.15165],[-2.80092,35.15706],[-2.83321,35.18547],[-2.86021,35.20073],[-2.85671,35.20616],[-2.76486,35.13486],[-2.73944,35.12189],[-2.72521,35.11885],[-2.6969,35.10413],[-2.65097,35.09096],[-2.62348,35.0864],[-2.56462,35.08126],[-2.53653,35.08501],[-2.49085,35.09992],[-2.45932,35.11913],[-2.42662,35.14683],[-2.39445,35.134],[-2.35038,35.12427],[-2.34012,35.12439],[-2.2957,35.11328],[-2.25707,35.09615],[-2.21176,35.08526],[-2.21083,35.0585],[-2.2185,35.04852],[-2.18374,35.0296],[-2.1872,35.02381],[-2.16503,35.00522],[-2.1598,35.00828],[-2.13765,35.00046],[-2.12243,34.99048],[-2.12126,34.98189],[-2.08045,34.94824],[-2.03501,34.92455],[-2.01054,34.93177],[-1.99254,34.93022],[-1.97318,34.93525],[-1.97303,34.8799],[-1.95056,34.87043],[-1.94154,34.86211],[-1.89352,34.84161],[-1.88858,34.80623],[-1.85922,34.80226],[-1.84204,34.78808],[-1.82219,34.78206],[-1.73927,34.74367],[-1.77122,34.72461],[-1.77522,34.69896],[-1.7895,34.68773],[-1.81508,34.66015],[-1.83381,34.63408],[-1.85383,34.61623],[-1.83895,34.61685],[-1.81707,34.60461],[-1.78907,34.56962],[-1.79012,34.5609],[-1.76774,34.54154],[-1.76189,34.52156],[-1.68678,34.49033],[-1.71836,34.46047],[-1.74202,34.43363],[-1.78197,34.3942],[-1.76857,34.37181],[-1.73419,34.34534],[-1.70533,34.30687],[-1.71089,34.2885],[-1.71183,34.26157],[-1.70602,34.25087],[-1.70672,34.23023],[-1.69195,34.19402],[-1.67109,34.15459],[-1.64789,34.10538],[-1.65954,34.05268],[-1.66471,34.01775],[-1.68776,33.91386],[-1.69875,33.86969],[-1.67132,33.7731],[-1.73015,33.73418],[-1.73815,33.70063],[-1.70875,33.68459],[-1.70825,33.67797],[-1.68977,33.67458],[-1.65824,33.68171],[-1.64655,33.67585],[-1.64398,33.66052],[-1.63134,33.63142],[-1.625,33.62506],[-1.59955,33.61543],[-1.59646,33.58621],[-1.60124,33.57586],[-1.59284,33.57093],[-1.60336,33.5564],[-1.58816,33.52906],[-1.60618,33.49822],[-1.61999,33.48986],[-1.61796,33.47532],[-1.62127,33.44818],[-1.62793,33.43179],[-1.64602,33.42301],[-1.66355,33.37812],[-1.66377,33.35162],[-1.65853,33.339],[-1.6617,33.31842],[-1.65854,33.30144],[-1.67027,33.28408],[-1.65533,33.2559],[-1.64581,33.25096],[-1.62893,33.22352],[-1.60673,33.21292],[-1.60029,33.19525],[-1.58035,33.16952],[-1.57605,33.14889],[-1.53916,33.11767],[-1.5346,33.10753],[-1.51462,33.09395],[-1.48781,33.0861],[-1.47547,33.07653],[-1.46176,33.04222],[-1.47673,33.0217],[-1.47229,33.00366],[-1.48593,32.97535],[-1.49645,32.9671],[-1.5106,32.96951],[-1.54378,32.95776],[-1.49828,32.89875],[-1.38226,32.73971],[-1.27112,32.69594],[-1.17479,32.63286],[-1.12876,32.60155],[-1.0449,32.54738],[-1.01009,32.53239],[-1.00026,32.51959],[-1.00066,32.50586],[-1.01195,32.50655],[-1.02053,32.49368],[-1.04699,32.47691],[-1.06814,32.45021],[-1.10385,32.4321],[-1.1224,32.41475],[-1.15504,32.41784],[-1.19986,32.40397],[-1.22242,32.34748],[-1.25058,32.32737],[-1.24535,32.31479],[-1.23531,32.31122],[-1.23483,32.28955],[-1.24816,32.25069],[-1.24112,32.20571],[-1.27664,32.18559],[-1.29972,32.168],[-1.28775,32.15854],[-1.27634,32.1638],[-1.23717,32.16901],[-1.21719,32.17583],[-1.18315,32.16363],[-1.16314,32.13351],[-1.15288,32.12813],[-1.15237,32.11177],[-1.18209,32.10359],[-1.1959,32.08979],[-1.2213,32.07989],[-1.25559,32.07666],[-1.27261,32.0868],[-1.3382,32.08319],[-1.36556,32.09155],[-1.38234,32.08645],[-1.40995,32.08731],[-1.44983,32.09327],[-1.48655,32.09602],[-1.50884,32.10375],[-1.57671,32.09207],[-1.63194,32.1052],[-1.64061,32.11007],[-1.66196,32.1094],[-1.69679,32.11874],[-1.71444,32.11456],[-1.72652,32.12106],[-1.74886,32.12108],[-1.78804,32.13513],[-1.80156,32.13635],[-1.82996,32.14637],[-1.83817,32.14336],[-1.85598,32.14946],[-1.86838,32.14408],[-1.9034,32.16436],[-1.92075,32.16236],[-1.92678,32.15105],[-1.9445,32.15852],[-1.96858,32.15732],[-1.98244,32.17004],[-2.01492,32.18218],[-2.08772,32.16041],[-2.10241,32.15359],[-2.1325,32.14649],[-2.18024,32.14225],[-2.24569,32.16248],[-2.27761,32.16861],[-2.2871,32.1527],[-2.29993,32.1513],[-2.31432,32.15832],[-2.35106,32.15491],[-2.40631,32.15784],[-2.43049,32.14971],[-2.436,32.15961],[-2.46375,32.15978],[-2.47705,32.15434],[-2.54669,32.14523],[-2.59172,32.11595],[-2.60003,32.11291],[-2.65751,32.11784],[-2.70738,32.11452],[-2.72856,32.11085],[-2.76366,32.11314],[-2.79877,32.11257],[-2.81982,32.11526],[-2.87343,32.11136],[-2.91869,32.0733],[-2.93091,32.03516],[-2.9282,32.02318],[-2.91654,32.01247],[-2.89709,31.97492],[-2.8876,31.96931],[-2.88189,31.95523],[-2.8843,31.94007],[-2.85507,31.90335],[-2.84143,31.88073],[-2.83707,31.85643],[-2.84415,31.83207],[-2.82831,31.82395],[-2.82192,31.8144],[-2.8207,31.79364],[-2.87021,31.78789],[-3.00102,31.76451],[-3.00062,31.75867],[-3.15834,31.7298],[-3.25177,31.71362],[-3.25606,31.72818],[-3.1965,31.77217],[-3.15642,31.79673],[-3.11273,31.84014],[-3.18217,31.83121],[-3.18449,31.81453],[-3.19333,31.81254],[-3.20002,31.82681],[-3.24448,31.90588],[-3.26996,31.97129],[-3.27219,32.01075],[-3.26207,32.09237],[-3.19299,32.17684],[-3.2679,32.1473],[-3.30945,32.1258],[-3.33347,32.10606],[-3.37695,32.10942],[-3.42677,32.12688],[-3.48375,32.14372],[-3.51086,32.14723],[-3.54222,32.14263],[-3.56595,32.12709],[-3.61543,32.10945],[-3.63447,32.12134],[-3.64679,32.13662],[-3.63614,32.15274],[-3.61658,32.17216],[-3.58301,32.19833],[-3.60069,32.20509],[-3.67358,32.19689],[-3.75382,32.20219],[-3.74676,32.2432],[-3.75373,32.26113],[-3.77295,32.26373],[-3.81341,32.25665],[-3.8179,32.26418],[-3.80774,32.28171],[-3.81043,32.31591],[-3.821,32.34537],[-3.85485,32.40252],[-3.91602,32.45019],[-3.93261,32.47903],[-3.93953,32.50745],[-3.92072,32.53419],[-3.96393,32.55516],[-4.00295,32.57946],[-4.01816,32.60844],[-4.01593,32.64076],[-3.97854,32.68849],[-3.94745,32.71852],[-3.91125,32.76307],[-3.86818,32.82388],[-3.83034,32.86649],[-3.79887,32.89575],[-3.74986,32.9256],[-3.72741,32.94771],[-3.71296,32.97939],[-3.68275,33.02694],[-3.64969,33.05743],[-3.61699,33.07831],[-3.60351,33.09453],[-3.57562,33.10844],[-3.55965,33.09762],[-3.51461,33.08515],[-3.43584,33.05657],[-3.34091,33.05967],[-3.23413,33.07736],[-3.14447,33.09392],[-3.02867,33.1138],[-2.9785,33.13258],[-2.9415,33.15244],[-2.90695,33.17701],[-2.899,33.19964],[-2.90572,33.21653],[-2.93543,33.2557],[-2.9992,33.31764],[-3.04082,33.34308],[-3.06976,33.36837],[-3.12069,33.40572],[-3.25728,33.51666],[-3.24509,33.52764],[-3.22793,33.53466],[-3.22693,33.55365],[-3.21367,33.56522],[-3.19046,33.57036],[-3.17501,33.59117],[-3.15253,33.60306],[-3.12044,33.63345],[-3.12339,33.66017],[-3.09102,33.6902],[-3.05842,33.70635],[-3.03238,33.73147],[-3.04508,33.76544],[-3.09428,33.76166],[-3.15303,33.7645],[-3.19067,33.76017],[-3.2345,33.76371],[-3.27656,33.77573],[-3.30198,33.7778],[-3.33089,33.78691],[-3.36391,33.8123],[-3.37947,33.8323],[-3.42027,33.8479],[-3.42947,33.86255],[-3.46644,33.87751],[-3.49325,33.9058],[-3.51639,33.90957],[-3.53228,33.89474],[-3.5424,33.86796],[-3.57592,33.82939],[-3.58704,33.81289],[-3.6119,33.78732],[-3.65081,33.74079],[-3.69316,33.72797],[-3.71155,33.70144],[-3.73661,33.67767],[-3.80284,33.65678],[-3.85733,33.59336],[-3.82256,33.57],[-3.80883,33.57072],[-3.79442,33.55748],[-3.84333,33.50942],[-3.84757,33.54231],[-3.87445,33.57071],[-3.88887,33.57087],[-3.89914,33.55021],[-3.93022,33.54575],[-3.93429,33.5282],[-3.94673,33.51464],[-3.98348,33.51314],[-4.01008,33.52387],[-4.03089,33.51689],[-4.05811,33.52625],[-4.09216,33.55519],[-4.10959,33.5614],[-4.11055,33.57615],[-4.10064,33.58679],[-4.08504,33.62387],[-4.08543,33.63905],[-4.10817,33.63857],[-4.11968,33.64926],[-4.12313,33.66379],[-4.08778,33.66361],[-4.08014,33.675],[-4.1034,33.68239],[-4.00964,33.71966],[-3.98939,33.72023],[-3.95936,33.73448],[-3.96842,33.76934],[-3.96606,33.78065],[-3.97585,33.78208],[-3.9549,33.81032],[-3.9277,33.83168],[-3.91806,33.84828],[-3.90186,33.88752],[-3.91139,33.91694],[-3.90658,33.92171],[-3.8924,33.97294],[-3.87721,33.9834],[-3.82487,34.00778],[-3.85254,34.0232],[-3.85114,34.03759],[-3.8415,34.05461],[-3.83766,34.0725],[-3.83715,34.102],[-3.83036,34.11763],[-3.83818,34.12721],[-3.81552,34.20989],[-3.83938,34.21091],[-3.85302,34.21692],[-3.89566,34.22518],[-3.878,34.23139],[-3.8889,34.24111],[-3.88315,34.25005],[-3.88871,34.25959],[-3.90838,34.26027],[-3.91437,34.27285],[-3.90946,34.28371],[-3.91718,34.30133],[-3.89472,34.30664],[-3.88748,34.30193],[-3.86249,34.307],[-3.8497,34.31682],[-3.83416,34.33805],[-3.84371,34.34312],[-3.84316,34.37144],[-3.85955,34.37114],[-3.83843,34.39395],[-3.84591,34.40459],[-3.83449,34.41307],[-3.85577,34.41137],[-3.84118,34.4404],[-3.85088,34.44606],[-3.84352,34.45604],[-3.79561,34.47515],[-3.77591,34.49849],[-3.76192,34.53004],[-3.74578,34.54669],[-3.76917,34.57496],[-3.75818,34.59068],[-3.77354,34.61993],[-3.75239,34.61746],[-3.73423,34.62622],[-3.7281,34.63893],[-3.70253,34.62555],[-3.66965,34.62459],[-3.64096,34.63323],[-3.64243,34.65853],[-3.63434,34.67379],[-3.61501,34.68996],[-3.59144,34.70134],[-3.61258,34.72247],[-3.61975,34.74102],[-3.59295,34.78905],[-3.593,34.83035],[-3.60463,34.84369],[-3.62683,34.8483],[-3.66847,34.84592],[-3.69529,34.84796],[-3.75221,34.84299],[-3.76358,34.86181],[-3.75977,34.88137],[-3.77013,34.88731],[-3.7923,34.8818],[-3.82012,34.88753]]]},"properties":{"shapeName":"Oriental","shapeISO":"MA-02","shapeID":"70788906B40056535803135"}},
{"type":"Feature","geometry":{"type":"Polygon","coordinates":[[[-4.01816,32.60844],[-4.00295,32.57946],[-3.96393,32.55516],[-3.92072,32.53419],[-3.93953,32.50745],[-3.93261,32.47903],[-3.91602,32.45019],[-3.85485,32.40252],[-3.821,32.34537],[-3.81043,32.31591],[-3.80774,32.28171],[-3.8179,32.26418],[-3.81341,32.25665],[-3.77295,32.26373],[-3.75373,32.26113],[-3.74676,32.2432],[-3.75382,32.20219],[-3.67358,32.19689],[-3.60069,32.20509],[-3.58301,32.19833],[-3.61658,32.17216],[-3.63614,32.15274],[-3.64679,32.13662],[-3.63447,32.12134],[-3.61543,32.10945],[-3.56595,32.12709],[-3.54222,32.14263],[-3.51086,32.14723],[-3.48375,32.14372],[-3.42677,32.12688],[-3.37695,32.10942],[-3.33347,32.10606],[-3.30945,32.1258],[-3.2679,32.1473],[-3.19299,32.17684],[-3.26207,32.09237],[-3.27219,32.01075],[-3.26996,31.97129],[-3.24448,31.90588],[-3.20002,31.82681],[-3.19333,31.81254],[-3.18449,31.81453],[-3.18217,31.83121],[-3.11273,31.84014],[-3.15642,31.79673],[-3.1965,31.77217],[-3.25606,31.72818],[-3.25177,31.71362],[-3.31853,31.69982],[-3.50242,31.6655],[-3.6612,31.63508],[-3.66467,31.63354],[-3.66484,31.40146],[-3.647,31.39392],[-3.6609,31.37796],[-3.66898,31.38632],[-3.67941,31.3707],[-3.69509,31.3634],[-3.71161,31.36201],[-3.71499,31.34688],[-3.73552,31.34365],[-3.73893,31.35525],[-3.74931,31.36099],[-3.76463,31.33404],[-3.76265,31.31062],[-3.78555,31.29277],[-3.77466,31.29168],[-3.77323,31.28059],[-3.75445,31.27913],[-3.75879,31.26343],[-3.78322,31.24888],[-3.7907,31.23622],[-3.77346,31.21096],[-3.75931,31.18],[-3.77742,31.14366],[-3.77506,31.1009],[-3.77243,31.11983],[-3.75564,31.12688],[-3.74127,31.12482],[-3.73393,31.11495],[-3.72523,31.12758],[-3.72423,31.14573],[-3.71054,31.15438],[-3.71387,31.16571],[-3.70206,31.17603],[-3.69437,31.16698],[-3.68093,31.16521],[-3.67091,31.14754],[-3.67011,31.11978],[-3.67625,31.10906],[-3.67954,31.08652],[-3.65797,31.08206],[-3.64276,31.0855],[-3.66395,31.08762],[-3.66464,31.10251],[-3.64895,31.09423],[-3.63658,31.09966],[-3.64418,31.11004],[-3.64464,31.13009],[-3.65159,31.1343],[-3.63865,31.1417],[-3.64307,31.15686],[-3.63899,31.16977],[-3.63466,31.13768],[-3.63881,31.11473],[-3.62964,31.1064],[-3.6197,31.11957],[-3.61758,31.09925],[-3.61077,31.10127],[-3.6058,31.07629],[-3.59385,31.07556],[-3.59218,31.05834],[-3.57389,31.04301],[-3.56357,31.04745],[-3.56131,31.06064],[-3.54861,31.0615],[-3.55243,31.04293],[-3.54838,31.03168],[-3.542,31.0386],[-3.53634,31.01369],[-3.54267,30.98078],[-3.53799,30.97377],[-3.54865,30.96346],[-3.54054,30.95509],[-3.55731,30.94834],[-3.55253,30.93867],[-3.5645,30.92892],[-3.57123,30.93453],[-3.57546,30.92234],[-3.58658,30.91915],[-3.58287,30.90797],[-3.59354,30.89459],[-3.60469,30.89484],[-3.60634,30.87901],[-3.61572,30.86577],[-3.63623,30.87568],[-3.63876,30.85827],[-3.65961,30.85161],[-3.65171,30.84251],[-3.64987,30.79884],[-3.64463,30.76761],[-3.63545,30.76448],[-3.62959,30.74465],[-3.6447,30.69044],[-3.66725,30.66016],[-3.68148,30.66788],[-3.70938,30.65492],[-3.72166,30.6449],[-3.74161,30.63901],[-3.76787,30.62615],[-3.77437,30.61305],[-3.7918,30.60733],[-3.8168,30.59036],[-3.84705,30.59534],[-3.86559,30.60521],[-3.88654,30.61069],[-3.92001,30.59912],[-3.92701,30.60383],[-3.98951,30.59401],[-4.05253,30.58989],[-4.14657,30.5853],[-4.32127,30.52887],[-4.40281,30.45845],[-4.60748,30.28262],[-4.74721,30.22206],[-4.93662,30.14047],[-4.97269,30.11492],[-5.12405,30.00303],[-5.14588,29.99478],[-5.18633,29.9702],[-5.2408,29.93393],[-5.25286,29.91577],[-5.28607,29.89761],[-5.32364,29.84679],[-5.32945,29.82834],[-5.32065,29.79781],[-5.33469,29.76841],[-5.44497,29.63354],[-5.49931,29.56392],[-5.54208,29.51218],[-5.55359,29.48303],[-5.56548,29.47659],[-5.578,29.48957],[-5.60598,29.48886],[-5.62967,29.50147],[-5.65081,29.50454],[-5.68877,29.53954],[-5.71453,29.51983],[-5.74293,29.51577],[-5.75073,29.53024],[-5.74155,29.55393],[-5.72436,29.57397],[-5.72324,29.5862],[-5.75243,29.60296],[-5.79986,29.61468],[-5.82079,29.6105],[-5.86352,29.60792],[-5.87978,29.59588],[-5.91511,29.59652],[-5.9573,29.59002],[-6.01693,29.57258],[-6.03779,29.57328],[-6.04893,29.56565],[-6.06984,29.56213],[-6.10386,29.57035],[-6.11816,29.56949],[-6.16532,29.5823],[-6.1856,29.57685],[-6.19987,29.57771],[-6.24746,29.5654],[-6.28968,29.57046],[-6.34547,29.56664],[-6.37387,29.56816],[-6.38671,29.56176],[-6.39043,29.55121],[-6.40915,29.56308],[-6.44851,29.56564],[-6.42052,29.62829],[-6.40546,29.64685],[-6.40601,29.66299],[-6.42181,29.68065],[-6.42494,29.69917],[-6.41271,29.72393],[-6.39027,29.74516],[-6.40391,29.7906],[-6.4064,29.84824],[-6.42099,29.90242],[-6.42237,29.94512],[-6.43176,29.97298],[-6.40049,29.99948],[-6.35708,30.01182],[-6.35365,30.03076],[-6.36529,30.03938],[-6.38785,30.03977],[-6.39797,30.04657],[-6.47913,30.02601],[-6.50783,30.0751],[-6.48831,30.12834],[-6.50278,30.14864],[-6.58969,30.22929],[-6.55701,30.25937],[-6.51074,30.29065],[-6.51222,30.31591],[-6.5486,30.34186],[-6.57577,30.37428],[-6.61419,30.41359],[-6.63823,30.4155],[-6.6441,30.42727],[-6.63909,30.43905],[-6.65734,30.46162],[-6.67119,30.46102],[-6.68937,30.44749],[-6.7347,30.43663],[-6.81093,30.42329],[-6.83251,30.46033],[-6.86124,30.45738],[-6.85473,30.43822],[-6.86071,30.40129],[-6.85616,30.36104],[-6.88272,30.33183],[-6.89864,30.34756],[-6.92455,30.35519],[-7.02246,30.33464],[-7.04975,30.34542],[-7.12074,30.36193],[-7.1597,30.37662],[-7.17069,30.37025],[-7.17953,30.35134],[-7.2318,30.29484],[-7.27904,30.22895],[-7.29546,30.21325],[-7.29423,30.19335],[-7.29849,30.1645],[-7.29248,30.14777],[-7.29464,30.13693],[-7.28815,30.12201],[-7.30152,30.10345],[-7.32031,30.1148],[-7.35328,30.15878],[-7.36929,30.18931],[-7.42246,30.18695],[-7.47018,30.21312],[-7.49045,30.19791],[-7.50992,30.20567],[-7.53776,30.22562],[-7.57232,30.21035],[-7.59057,30.20724],[-7.60499,30.21362],[-7.62588,30.2122],[-7.62885,30.22727],[-7.60666,30.23193],[-7.58185,30.2475],[-7.57773,30.26678],[-7.57958,30.28161],[-7.60836,30.31661],[-7.62816,30.40548],[-7.65425,30.38721],[-7.67929,30.37855],[-7.69099,30.41101],[-7.69253,30.42417],[-7.68639,30.4497],[-7.63314,30.4746],[-7.61146,30.4813],[-7.5708,30.52534],[-7.54437,30.52794],[-7.51579,30.54326],[-7.52251,30.54613],[-7.5412,30.57263],[-7.55501,30.59768],[-7.56972,30.64377],[-7.55684,30.65109],[-7.55882,30.68208],[-7.57074,30.72942],[-7.61736,30.73413],[-7.70985,30.74091],[-7.69676,30.75381],[-7.68628,30.7538],[-7.68302,30.76724],[-7.67066,30.77275],[-7.66783,30.79116],[-7.6795,30.81763],[-7.6686,30.83807],[-7.63015,30.86264],[-7.66714,30.86014],[-7.70888,30.85112],[-7.73369,30.86102],[-7.73579,30.88789],[-7.73165,30.90564],[-7.73019,30.93985],[-7.72405,30.95973],[-7.72038,30.99054],[-7.72079,31.01987],[-7.71444,31.03799],[-7.73033,31.05602],[-7.7272,31.0662],[-7.73868,31.07896],[-7.75238,31.10532],[-7.74401,31.1272],[-7.73179,31.13463],[-7.71218,31.13131],[-7.70034,31.14377],[-7.69687,31.16262],[-7.67868,31.17391],[-7.66254,31.17796],[-7.65014,31.19135],[-7.59911,31.20902],[-7.58993,31.2237],[-7.58409,31.24512],[-7.49877,31.25076],[-7.47778,31.27041],[-7.44721,31.27714],[-7.43583,31.29128],[-7.38648,31.28668],[-7.35171,31.29555],[-7.3056,31.31818],[-7.25284,31.34889],[-7.23391,31.37472],[-7.23922,31.3927],[-7.21787,31.41387],[-7.18452,31.42896],[-7.17373,31.41689],[-7.15566,31.4283],[-7.13871,31.38075],[-7.12685,31.36647],[-7.10249,31.36492],[-7.06077,31.37034],[-7.03914,31.39027],[-7.03434,31.38719],[-7.00899,31.33899],[-6.99593,31.3493],[-6.97258,31.35118],[-6.92374,31.34501],[-6.8092,31.34334],[-6.73305,31.34882],[-6.71874,31.35774],[-6.70335,31.41835],[-6.70101,31.46948],[-6.66215,31.46166],[-6.63293,31.46149],[-6.56332,31.50785],[-6.5316,31.52351],[-6.49513,31.53582],[-6.47515,31.54889],[-6.44973,31.54763],[-6.42346,31.5788],[-6.39646,31.59114],[-6.35603,31.60307],[-6.31385,31.62001],[-6.26135,31.63622],[-6.21089,31.65707],[-6.12259,31.69121],[-6.06029,31.70571],[-6.01771,31.72021],[-5.98005,31.73997],[-5.96616,31.75111],[-5.92062,31.82112],[-5.89436,31.8321],[-5.8554,31.83931],[-5.81729,31.85757],[-5.82538,31.86837],[-5.82396,31.89373],[-5.79858,31.92805],[-5.80267,31.9389],[-5.82587,31.96374],[-5.88818,31.98342],[-5.88217,32.0291],[-5.8753,32.06284],[-5.86672,32.08659],[-5.86827,32.09805],[-5.85796,32.11798],[-5.84369,32.13234],[-5.80267,32.1275],[-5.74707,32.14459],[-5.71841,32.17676],[-5.68847,32.19858],[-5.67795,32.21382],[-5.63869,32.2159],[-5.58721,32.22139],[-5.56317,32.23993],[-5.5372,32.23822],[-5.50884,32.22599],[-5.45788,32.21404],[-5.44699,32.21717],[-5.45549,32.24329],[-5.48337,32.2597],[-5.4998,32.2736],[-5.50884,32.3024],[-5.48297,32.32972],[-5.47397,32.3464],[-5.53394,32.36191],[-5.52677,32.36753],[-5.52472,32.39087],[-5.53633,32.42051],[-5.52792,32.43642],[-5.5359,32.45399],[-5.47574,32.45401],[-5.44432,32.45727],[-5.41042,32.46567],[-5.39617,32.48254],[-5.39385,32.49862],[-5.40484,32.5153],[-5.39798,32.52476],[-5.35497,32.51549],[-5.34819,32.55506],[-5.3391,32.57373],[-5.34639,32.60237],[-5.32227,32.61748],[-5.32382,32.63013],[-5.31309,32.67262],[-5.32142,32.69899],[-5.31463,32.71928],[-5.313,32.74491],[-5.31798,32.76418],[-5.31129,32.78691],[-5.2991,32.79521],[-5.31163,32.80709],[-5.29704,32.82102],[-5.28769,32.83972],[-5.26245,32.85419],[-5.24928,32.85651],[-5.25455,32.86937],[-5.22984,32.88362],[-5.19022,32.91552],[-5.16871,32.90467],[-5.14186,32.90886],[-5.13289,32.91759],[-5.12747,32.94548],[-5.09285,32.95953],[-5.05685,32.98089],[-5.07172,33.02373],[-5.05524,33.04078],[-5.01719,33.07363],[-4.99645,33.08316],[-4.89277,33.0792],[-4.86334,33.07433],[-4.84564,33.07592],[-4.82774,33.09795],[-4.82145,33.07266],[-4.80832,33.04761],[-4.77459,33.01802],[-4.76643,33.00038],[-4.75502,32.95995],[-4.77295,32.9271],[-4.76979,32.91225],[-4.71383,32.89237],[-4.65647,32.88055],[-4.623,32.87968],[-4.55809,32.89627],[-4.52374,32.89548],[-4.4775,32.88272],[-4.48723,32.86755],[-4.46409,32.84235],[-4.40533,32.81064],[-4.37134,32.78687],[-4.3242,32.75042],[-4.28503,32.71475],[-4.24227,32.65712],[-4.21682,32.61378],[-4.17408,32.60105],[-4.10358,32.62304],[-4.05787,32.60056],[-4.01816,32.60844]]]},"properties":{"shapeName":"Drâa-Tafilalet","shapeISO":"MA-08","shapeID":"70788906B26242154300952"}},
{"type":"Feature","geometry":{"type":"Polygon","coordinates":[[[-7.73179,31.13463],[-7.74401,31.1272],[-7.75238,31.10532],[-7.73868,31.07896],[-7.7272,31.0662],[-7.73033,31.05602],[-7.71444,31.03799],[-7.72079,31.01987],[-7.72038,30.99054],[-7.72405,30.95973],[-7.73019,30.93985],[-7.73165,30.90564],[-7.73579,30.88789],[-7.73369,30.86102],[-7.70888,30.85112],[-7.66714,30.86014],[-7.63015,30.86264],[-7.6686,30.83807],[-7.6795,30.81763],[-7.66783,30.79116],[-7.67066,30.77275],[-7.68302,30.76724],[-7.68628,30.7538],[-7.69676,30.75381],[-7.70985,30.74091],[-7.61736,30.73413],[-7.57074,30.72942],[-7.55882,30.68208],[-7.55684,30.65109],[-7.56972,30.64377],[-7.55501,30.59768],[-7.5412,30.57263],[-7.52251,30.54613],[-7.51579,30.54326],[-7.54437,30.52794],[-7.5708,30.52534],[-7.61146,30.4813],[-7.63314,30.4746],[-7.68639,30.4497],[-7.69253,30.42417],[-7.69099,30.41101],[-7.67929,30.37855],[-7.65425,30.38721],[-7.62816,30.40548],[-7.60836,30.31661],[-7.57958,30.28161],[-7.57773,30.26678],[-7.58185,30.2475],[-7.60666,30.23193],[-7.62885,30.22727],[-7.62588,30.2122],[-7.60499,30.21362],[-7.59057,30.20724],[-7.57232,30.21035],[-7.53776,30.22562],[-7.50992,30.20567],[-7.49045,30.19791],[-7.47018,30.21312],[-7.42246,30.18695],[-7.36929,30.18931],[-7.35328,30.15878],[-7.32031,30.1148],[-7.30152,30.10345],[-7.28815,30.12201],[-7.29464,30.13693],[-7.29248,30.14777],[-7.29849,30.1645],[-7.29423,30.19335],[-7.29546,30.21325],[-7.27904,30.22895],[-7.2318,30.29484],[-7.17953,30.35134],[-7.17069,30.37025],[-7.1597,30.37662],[-7.12074,30.36193],[-7.04975,30.34542],[-7.02246,30.33464],[-6.92455,30.35519],[-6.89864,30.34756],[-6.88272,30.33183],[-6.85616,30.36104],[-6.86071,30.40129],[-6.85473,30.43822],[-6.86124,30.45738],[-6.83251,30.46033],[-6.81093,30.42329],[-6.7347,30.43663],[-6.68937,30.44749],[-6.67119,30.46102],[-6.65734,30.46162],[-6.63909,30.43905],[-6.6441,30.42727],[-6.63823,30.4155],[-6.61419,30.41359],[-6.57577,30.37428],[-6.5486,30.34186],[-6.51222,30.31591],[-6.51074,30.29065],[-6.55701,30.25937],[-6.58969,30.22929],[-6.50278,30.14864],[-6.48831,30.12834],[-6.50783,30.0751],[-6.47913,30.02601],[-6.39797,30.04657],[-6.38785,30.03977],[-6.36529,30.03938],[-6.35365,30.03076],[-6.35708,30.01182],[-6.40049,29.99948],[-6.43176,29.97298],[-6.42237,29.94512],[-6.42099,29.90242],[-6.4064,29.84824],[-6.40391,29.7906],[-6.39027,29.74516],[-6.41271,29.72393],[-6.42494,29.69917],[-6.42181,29.68065],[-6.40601,29.66299],[-6.40546,29.64685],[-6.42052,29.62829],[-6.44851,29.56564],[-6.48742,29.55158],[-6.51546,29.5357],[-6.52764,29.52151],[-6.54773,29.52539],[-6.576,29.52298],[-6.61874,29.52975],[-6.62411,29.5212],[-6.68076,29.51798],[-6.72097,29.5057],[-6.74655,29.47562],[-6.76319,29.464],[-6.77725,29.4621],[-6.83375,29.46808],[-6.85606,29.48271],[-6.89095,29.485],[-6.9154,29.49744],[-6.9718,29.49518],[-6.98245,29.50334],[-7.00349,29.50163],[-7.02263,29.49359],[-7.06319,29.5038],[-7.08097,29.51429],[-7.11488,29.52335],[-7.14983,29.52271],[-7.18745,29.50503],[-7.22733,29.49149],[-7.25689,29.4742],[-7.34068,29.39613],[-7.38204,29.38528],[-7.38841,29.37748],[-7.412,29.38145],[-7.48087,29.36597],[-7.53766,29.36565],[-7.56471,29.3733],[-7.59277,29.37746],[-7.61859,29.3676],[-7.62689,29.35741],[-7.62527,29.33381],[-7.63385,29.32495],[-7.63814,29.30302],[-7.65117,29.29888],[-7.66389,29.30246],[-7.74896,29.2737],[-7.78645,29.25592],[-7.82375,29.22716],[-7.82659,29.21169],[-7.83831,29.21193],[-7.87711,29.19984],[-7.87662,29.19296],[-7.90835,29.18514],[-7.92956,29.17033],[-7.96131,29.14004],[-7.95774,29.12356],[-7.97189,29.12319],[-8.00064,29.10602],[-8.05011,29.08182],[-8.06834,29.06631],[-8.0777,29.06754],[-8.10642,29.04605],[-8.15201,29.01692],[-8.17211,29.01536],[-8.18735,29.0039],[-8.19327,28.99268],[-8.21712,28.98522],[-8.23565,28.97413],[-8.25981,28.94999],[-8.27386,28.94908],[-8.30051,28.93145],[-8.30805,28.91908],[-8.32122,28.91798],[-8.35384,28.88857],[-8.39074,28.85858],[-8.41513,28.83548],[-8.42262,28.82069],[-8.46387,28.79575],[-8.49877,28.78279],[-8.51045,28.77375],[-8.53673,28.7681],[-8.5771,28.75083],[-8.5902,28.74264],[-8.66891,28.71409],[-8.66849,28.57435],[-8.66887,28.31106],[-8.77205,28.42068],[-8.88316,28.54494],[-8.91831,28.5982],[-8.97053,28.64498],[-8.96781,28.66186],[-8.97319,28.68557],[-9.00119,28.71403],[-9.06595,28.7175],[-9.13443,28.72682],[-9.17981,28.77974],[-9.20597,28.79543],[-9.20209,28.84285],[-9.1811,28.85398],[-9.21556,28.85985],[-9.22648,28.89544],[-9.23773,28.94072],[-9.22287,28.95659],[-9.22426,28.97744],[-9.24928,28.98577],[-9.23405,29.02694],[-9.23441,29.04214],[-9.24577,29.07075],[-9.17582,29.09066],[-9.20912,29.05253],[-9.20603,29.04168],[-9.19539,29.03778],[-9.14612,29.07142],[-9.13839,29.08215],[-9.16114,29.10373],[-9.15994,29.11143],[-9.12895,29.12909],[-9.09131,29.15517],[-9.08559,29.162],[-9.08559,29.1849],[-9.0958,29.21843],[-9.12035,29.24863],[-9.13957,29.26719],[-9.15039,29.29697],[-9.16961,29.35958],[-9.15934,29.37933],[-9.16157,29.39115],[-9.20611,29.43212],[-9.20998,29.44573],[-9.24731,29.47615],[-9.26843,29.48758],[-9.2783,29.49789],[-9.30431,29.49871],[-9.31254,29.50633],[-9.32894,29.50872],[-9.34173,29.50256],[-9.36713,29.5014],[-9.38447,29.46442],[-9.39966,29.46449],[-9.40653,29.45148],[-9.40971,29.46098],[-9.42061,29.45634],[-9.41906,29.44244],[-9.4255,29.4319],[-9.44472,29.44595],[-9.45949,29.44805],[-9.4794,29.44124],[-9.49047,29.45971],[-9.50034,29.42248],[-9.52832,29.43474],[-9.52686,29.44864],[-9.54343,29.45582],[-9.5624,29.48675],[-9.58626,29.47787],[-9.58831,29.45373],[-9.5969,29.43639],[-9.61466,29.43691],[-9.6393,29.46583],[-9.65312,29.46852],[-9.64162,29.45724],[-9.63698,29.42861],[-9.63269,29.426],[-9.64101,29.40633],[-9.6599,29.3999],[-9.66187,29.41657],[-9.65724,29.43183],[-9.66882,29.44094],[-9.68127,29.44087],[-9.69895,29.44984],[-9.70736,29.4473],[-9.71105,29.46688],[-9.73778,29.46551],[-9.74444,29.45373],[-9.77294,29.44349],[-9.78315,29.42839],[-9.81208,29.42263],[-9.84632,29.42084],[-9.86238,29.42831],[-9.87191,29.43892],[-9.88547,29.44162],[-9.88487,29.45806],[-9.89474,29.47061],[-9.90452,29.47233],[-9.91254,29.48676],[-9.89293,29.5052],[-9.88392,29.53254],[-9.88916,29.55853],[-9.90272,29.53732],[-9.93087,29.53627],[-9.96623,29.51633],[-9.9931,29.50692],[-10.00263,29.53717],[-9.99164,29.55255],[-9.98872,29.57902],[-9.99941,29.58756],[-9.99276,29.60094],[-10.00981,29.63064],[-10.00952,29.63509],[-9.98523,29.66089],[-9.9848,29.66979],[-9.96592,29.69397],[-9.93538,29.72069],[-9.89495,29.75055],[-9.83059,29.809],[-9.82657,29.82072],[-9.79498,29.85617],[-9.79115,29.87515],[-9.76035,29.91445],[-9.76178,29.92826],[-9.7546,29.9348],[-9.73477,29.96937],[-9.73215,29.9788],[-9.71219,30.01322],[-9.69234,30.05363],[-9.66699,30.08844],[-9.6556,30.11971],[-9.65294,30.14011],[-9.63863,30.18696],[-9.64125,30.20843],[-9.63327,30.22652],[-9.62741,30.26507],[-9.62104,30.28732],[-9.61816,30.31496],[-9.60374,30.36527],[-9.60043,30.39875],[-9.61307,30.42216],[-9.64079,30.42487],[-9.6612,30.44598],[-9.67974,30.50103],[-9.70407,30.54235],[-9.73941,30.55096],[-9.74703,30.57303],[-9.78513,30.60955],[-9.82718,30.62725],[-9.86099,30.62376],[-9.88958,30.62936],[-9.88749,30.65992],[-9.87298,30.70019],[-9.85037,30.72047],[-9.85168,30.7324],[-9.8298,30.76267],[-9.82889,30.77737],[-9.8164,30.7893],[-9.80523,30.81839],[-9.80928,30.83735],[-9.82191,30.83802],[-9.8271,30.84768],[-9.81299,30.87407],[-9.80787,30.89217],[-9.82029,30.91192],[-9.8179,30.93813],[-9.79511,30.93527],[-9.77099,30.92773],[-9.76584,30.91421],[-9.76688,30.88428],[-9.73419,30.87314],[-9.73877,30.84361],[-9.71559,30.79144],[-9.6881,30.78595],[-9.65412,30.807],[-9.63864,30.79994],[-9.60444,30.85672],[-9.5931,30.85772],[-9.58119,30.84308],[-9.56964,30.84144],[-9.54302,30.88451],[-9.53405,30.88217],[-9.53878,30.86755],[-9.52271,30.86247],[-9.51216,30.8694],[-9.49299,30.85748],[-9.44316,30.83847],[-9.41424,30.84925],[-9.40635,30.8615],[-9.38548,30.86599],[-9.34611,30.85514],[-9.34591,30.87444],[-9.33519,30.88819],[-9.29665,30.84394],[-9.27219,30.83193],[-9.2465,30.80236],[-9.19173,30.81752],[-9.16839,30.82768],[-9.15159,30.82189],[-9.13287,30.82789],[-9.07803,30.82647],[-9.02124,30.81926],[-8.99688,30.8254],[-8.99187,30.87361],[-8.98609,30.89007],[-8.95481,30.90436],[-8.91642,30.91492],[-8.8655,30.94944],[-8.84151,30.96827],[-8.81916,30.97347],[-8.80036,30.95862],[-8.79138,30.94184],[-8.7821,30.9374],[-8.7879,30.92665],[-8.77185,30.91277],[-8.76996,30.89877],[-8.7612,30.88869],[-8.76451,30.87284],[-8.76022,30.83791],[-8.74177,30.81072],[-8.72821,30.81403],[-8.72477,30.83865],[-8.72752,30.85626],[-8.7061,30.866],[-8.66945,30.89788],[-8.66143,30.90147],[-8.6465,30.88845],[-8.60429,30.8806],[-8.56845,30.88224],[-8.53837,30.87389],[-8.50921,30.87009],[-8.48413,30.87141],[-8.44751,30.86429],[-8.41411,30.87222],[-8.38697,30.86304],[-8.34904,30.86485],[-8.32643,30.87578],[-8.28177,30.88219],[-8.25028,30.88956],[-8.22159,30.91416],[-8.13624,30.93877],[-8.10782,30.92808],[-8.05989,30.92522],[-8.01456,30.9089],[-7.97854,30.92239],[-7.96334,30.93649],[-7.94699,30.95978],[-7.92827,31.00791],[-7.92711,31.03193],[-7.91635,31.03683],[-7.90312,31.08026],[-7.88695,31.10676],[-7.80968,31.14535],[-7.82493,31.16659],[-7.79326,31.15428],[-7.78347,31.16258],[-7.76982,31.1429],[-7.73179,31.13463]]]},"properties":{"shapeName":"Souss-Massa","shapeISO":"MA-09","shapeID":"70788906B1820144472977"}},
{"type":"Feature","geometry":{"type":"Polygon","coordinates":[[[-8.6676,27.13613],[-8.75422,27.14715],[-8.80915,27.16043],[-8.87456,27.18319],[-8.92101,27.23102],[-8.97199,27.27829],[-9.06103,27.3139],[-9.17212,27.40948],[-9.28871,27.47211],[-9.40681,27.42374],[-9.44904,27.41502],[-9.54414,27.40229],[-9.60729,27.44567],[-9.68252,27.48844],[-9.71941,27.50686],[-9.76318,27.5365],[-9.7982,27.56897],[-9.81416,27.59117],[-9.81622,27.61294],[-9.83923,27.63513],[-9.86171,27.66189],[-9.88025,27.67207],[-9.89931,27.67348],[-9.91579,27.64822],[-9.93759,27.64008],[-9.96592,27.63472],[-9.98532,27.63821],[-10.01738,27.6543],[-10.03271,27.67088],[-10.04044,27.68767],[-10.05832,27.70977],[-10.09202,27.71048],[-10.11154,27.70055],[-10.13706,27.71403],[-10.21233,27.79906],[-10.24836,27.8095],[-10.27583,27.81394],[-10.41642,27.80476],[-10.4777,27.79398],[-10.5704,27.78578],[-10.60834,27.78107],[-10.63374,27.78092],[-10.71872,27.76785],[-10.75339,27.78268],[-10.78635,27.78641],[-10.87063,27.77394],[-10.90154,27.75753],[-10.92704,27.76097],[-10.96488,27.75707],[-11.07828,27.7508],[-11.11518,27.74563],[-11.18975,27.73838],[-11.22821,27.75844],[-11.25842,27.76801],[-11.30734,27.77985],[-11.3609,27.7961],[-11.40519,27.8043],[-11.48541,27.80705],[-11.55143,27.83624],[-11.58505,27.86588],[-11.63621,27.95219],[-11.66556,27.99222],[-11.69904,28.05877],[-11.71157,28.12348],[-11.74285,28.14766],[-11.77216,28.18136],[-11.78193,28.20961],[-11.77869,28.21353],[-11.74235,28.22826],[-11.6925,28.24501],[-11.65171,28.25501],[-11.61364,28.26671],[-11.52802,28.29947],[-11.5062,28.31],[-11.4909,28.32262],[-11.46422,28.3372],[-11.45205,28.34934],[-11.44648,28.37054],[-11.42655,28.39072],[-11.41022,28.40181],[-11.38185,28.44654],[-11.36859,28.45191],[-11.35241,28.4696],[-11.35266,28.48277],[-11.31975,28.51837],[-11.27066,28.55284],[-11.22871,28.59365],[-11.21626,28.61108],[-11.20135,28.62316],[-11.16318,28.64764],[-11.13815,28.6735],[-11.11379,28.68773],[-11.09513,28.7043],[-11.07724,28.72849],[-11.07346,28.74239],[-11.04104,28.76257],[-11.01014,28.7716],[-10.98913,28.78373],[-10.8443,28.84844],[-10.7035,28.9172],[-10.65403,28.94266],[-10.5638,28.99399],[-10.50652,29.03158],[-10.47015,29.06657],[-10.45656,29.08464],[-10.43764,29.09951],[-10.424,29.12862],[-10.40433,29.14611],[-10.40221,29.15538],[-10.38175,29.18006],[-10.32839,29.23443],[-10.2949,29.26231],[-10.25125,29.2844],[-10.21663,29.31223],[-10.19321,29.36283],[-10.17129,29.39141],[-10.11499,29.44785],[-10.09964,29.48068],[-10.07907,29.49923],[-10.07011,29.51762],[-10.07262,29.53114],[-10.05767,29.55355],[-10.05967,29.56079],[-10.04802,29.5861],[-10.0337,29.59547],[-10.02985,29.60694],[-10.00981,29.63064],[-9.99276,29.60094],[-9.99941,29.58756],[-9.98872,29.57902],[-9.99164,29.55255],[-10.00263,29.53717],[-9.9931,29.50692],[-9.96623,29.51633],[-9.93087,29.53627],[-9.90272,29.53732],[-9.88916,29.55853],[-9.88392,29.53254],[-9.89293,29.5052],[-9.91254,29.48676],[-9.90452,29.47233],[-9.89474,29.47061],[-9.88487,29.45806],[-9.88547,29.44162],[-9.87191,29.43892],[-9.86238,29.42831],[-9.84632,29.42084],[-9.81208,29.42263],[-9.78315,29.42839],[-9.77294,29.44349],[-9.74444,29.45373],[-9.73778,29.46551],[-9.71105,29.46688],[-9.70736,29.4473],[-9.69895,29.44984],[-9.68127,29.44087],[-9.66882,29.44094],[-9.65724,29.43183],[-9.66187,29.41657],[-9.6599,29.3999],[-9.64101,29.40633],[-9.63269,29.426],[-9.63698,29.42861],[-9.64162,29.45724],[-9.65312,29.46852],[-9.6393,29.46583],[-9.61466,29.43691],[-9.5969,29.43639],[-9.58831,29.45373],[-9.58626,29.47787],[-9.5624,29.48675],[-9.54343,29.45582],[-9.52686,29.44864],[-9.52832,29.43474],[-9.50034,29.42248],[-9.49047,29.45971],[-9.4794,29.44124],[-9.45949,29.44805],[-9.44472,29.44595],[-9.4255,29.4319],[-9.41906,29.44244],[-9.42061,29.45634],[-9.40971,29.46098],[-9.40653,29.45148],[-9.39966,29.46449],[-9.38447,29.46442],[-9.36713,29.5014],[-9.34173,29.50256],[-9.32894,29.50872],[-9.31254,29.50633],[-9.30431,29.49871],[-9.2783,29.49789],[-9.26843,29.48758],[-9.24731,29.47615],[-9.20998,29.44573],[-9.20611,29.43212],[-9.16157,29.39115],[-9.15934,29.37933],[-9.16961,29.35958],[-9.15039,29.29697],[-9.13957,29.26719],[-9.12035,29.24863],[-9.0958,29.21843],[-9.08559,29.1849],[-9.08559,29.162],[-9.09131,29.15517],[-9.12895,29.12909],[-9.15994,29.11143],[-9.16114,29.10373],[-9.13839,29.08215],[-9.14612,29.07142],[-9.19539,29.03778],[-9.20603,29.04168],[-9.20912,29.05253],[-9.17582,29.09066],[-9.24577,29.07075],[-9.23441,29.04214],[-9.23405,29.02694],[-9.24928,28.98577],[-9.22426,28.97744],[-9.22287,28.95659],[-9.23773,28.94072],[-9.22648,28.89544],[-9.21556,28.85985],[-9.1811,28.85398],[-9.20209,28.84285],[-9.20597,28.79543],[-9.17981,28.77974],[-9.13443,28.72682],[-9.06595,28.7175],[-9.00119,28.71403],[-8.97319,28.68557],[-8.96781,28.66186],[-8.97053,28.64498],[-8.91831,28.5982],[-8.88316,28.54494],[-8.77205,28.42068],[-8.66887,28.31106],[-8.66858,28.12301],[-8.66781,28.0001],[-8.6678,27.80968],[-8.66804,27.52189],[-8.66812,27.31494],[-8.6676,27.13613]]]},"properties":{"shapeName":"Guelmim-Oued Noun","shapeISO":"MA-10","shapeID":"70788906B64069740334949"}},
{"type":"Feature","geometry":{"type":"Polygon","coordinates":[[[-9.05932,32.72101],[-9.0424,32.74055],[-9.01783,32.75904],[-8.92399,32.82392],[-8.89809,32.84451],[-8.86942,32.87495],[-8.80959,32.92612],[-8.7561,32.97795],[-8.74849,32.97434],[-8.7339,32.9971],[-8.7564,32.98053],[-8.74201,32.99823],[-8.71142,33.02285],[-8.68291,33.06115],[-8.65378,33.08698],[-8.64865,33.09858],[-8.63331,33.11028],[-8.61355,33.14355],[-8.6297,33.16169],[-8.59991,33.19013],[-8.57492,33.21767],[-8.5642,33.21729],[-8.54475,33.2437],[-8.50982,33.26474],[-8.48782,33.24569],[-8.46633,33.2456],[-8.43851,33.25521],[-8.39382,33.28024],[-8.33781,33.32137],[-8.31156,33.35959],[-8.29703,33.36785],[-8.28144,33.36882],[-8.24432,33.38132],[-8.22699,33.38218],[-8.1913,33.39652],[-8.18196,33.40436],[-8.15269,33.4072],[-8.123,33.41635],[-8.09235,33.43103],[-8.0148,33.45567],[-7.99677,33.46583],[-7.95716,33.48251],[-7.94163,33.48141],[-7.90506,33.49502],[-7.83185,33.52976],[-7.8238,33.53706],[-7.81694,33.5273],[-7.79937,33.53039],[-7.72427,33.56648],[-7.70532,33.58054],[-7.66087,33.60349],[-7.65105,33.6142],[-7.64285,33.60465],[-7.62498,33.61094],[-7.60547,33.61051],[-7.58803,33.60397],[-7.55092,33.61981],[-7.53704,33.62049],[-7.50534,33.63821],[-7.46687,33.66284],[-7.40215,33.71343],[-7.37208,33.70905],[-7.34368,33.71975],[-7.34517,33.72647],[-7.31871,33.74051],[-7.29962,33.75695],[-7.26428,33.78117],[-7.22863,33.79798],[-7.19016,33.80461],[-7.16975,33.8189],[-7.16506,33.81644],[-7.12602,33.83176],[-7.11081,33.81592],[-7.0994,33.79526],[-7.08206,33.79212],[-7.06026,33.79769],[-7.06249,33.78314],[-7.04343,33.76986],[-7.03725,33.74361],[-7.03038,33.73403],[-7.02145,33.70305],[-7.02919,33.68263],[-7.01888,33.67863],[-7.0134,33.65492],[-7.00532,33.65162],[-6.99777,33.63089],[-7.00395,33.61504],[-6.992,33.60978],[-6.99221,33.59102],[-6.97346,33.57164],[-6.98037,33.57053],[-6.95848,33.54432],[-6.94466,33.54804],[-6.94942,33.56499],[-6.93689,33.57998],[-6.91704,33.58315],[-6.90795,33.57192],[-6.89298,33.57428],[-6.87335,33.56894],[-6.85342,33.57208],[-6.82693,33.56857],[-6.81646,33.57181],[-6.79638,33.56187],[-6.77355,33.56228],[-6.75694,33.54272],[-6.77243,33.51332],[-6.78915,33.49654],[-6.79831,33.49875],[-6.82409,33.48544],[-6.82823,33.46292],[-6.82457,33.45282],[-6.8098,33.44327],[-6.79633,33.42723],[-6.80503,33.41506],[-6.80902,33.39708],[-6.80895,33.36824],[-6.80149,33.32266],[-6.79743,33.27559],[-6.79871,33.24949],[-6.80507,33.23568],[-6.84129,33.22435],[-6.86913,33.20167],[-6.88368,33.15923],[-6.89254,33.14149],[-6.89516,33.10575],[-6.91379,33.10164],[-6.9031,33.07673],[-6.93219,33.05697],[-6.92255,33.04871],[-6.94442,33.00891],[-6.94286,32.99175],[-6.96881,32.95262],[-6.98129,32.94978],[-7.00255,32.95612],[-7.00826,32.94743],[-6.99872,32.93837],[-7.00605,32.92232],[-6.99987,32.8478],[-7.01284,32.81085],[-7.02892,32.78859],[-7.03441,32.77013],[-7.02241,32.77042],[-7.04258,32.74009],[-7.05592,32.69871],[-7.03001,32.67671],[-7.01308,32.65582],[-6.98649,32.63569],[-6.99629,32.56049],[-7.01512,32.55661],[-6.99469,32.52023],[-6.99221,32.49946],[-6.99999,32.47151],[-7.03444,32.39807],[-7.04068,32.37365],[-7.10553,32.35298],[-7.13304,32.31927],[-7.14449,32.33555],[-7.15404,32.3277],[-7.18086,32.33584],[-7.18868,32.32954],[-7.19665,32.3466],[-7.2057,32.34959],[-7.22136,32.36738],[-7.23519,32.36623],[-7.24025,32.37378],[-7.25678,32.37363],[-7.26054,32.39086],[-7.28288,32.40242],[-7.30284,32.3973],[-7.32106,32.41167],[-7.33558,32.40463],[-7.33755,32.41795],[-7.37243,32.46207],[-7.3898,32.46157],[-7.41431,32.44646],[-7.42753,32.44642],[-7.4419,32.45661],[-7.46628,32.45784],[-7.46937,32.44087],[-7.48154,32.44224],[-7.48142,32.4578],[-7.48895,32.46728],[-7.50178,32.46834],[-7.50199,32.45434],[-7.52066,32.44734],[-7.54574,32.44568],[-7.56338,32.45574],[-7.59533,32.45626],[-7.6265,32.46843],[-7.64136,32.47795],[-7.65056,32.49559],[-7.67272,32.49759],[-7.66568,32.51189],[-7.68507,32.52257],[-7.68285,32.53378],[-7.69707,32.53002],[-7.69907,32.54862],[-7.7208,32.55857],[-7.71346,32.5692],[-7.71761,32.58149],[-7.73031,32.58851],[-7.71704,32.59077],[-7.72882,32.59656],[-7.75522,32.5976],[-7.77638,32.6053],[-7.81383,32.62897],[-7.84527,32.66078],[-7.87463,32.67064],[-7.89333,32.69137],[-7.90808,32.69117],[-7.92163,32.71322],[-7.91974,32.72522],[-7.93144,32.72643],[-7.9345,32.73643],[-7.95724,32.75529],[-7.9627,32.76489],[-7.9613,32.78065],[-7.97774,32.78654],[-7.97851,32.79556],[-7.99253,32.79822],[-7.99607,32.81425],[-8.03685,32.79088],[-8.04744,32.76801],[-8.04924,32.74643],[-8.0594,32.70654],[-8.07441,32.67682],[-8.06978,32.63354],[-8.05418,32.59197],[-8.05541,32.57267],[-8.0757,32.5514],[-8.09132,32.52801],[-8.11776,32.50209],[-8.13665,32.49044],[-8.1517,32.48896],[-8.19474,32.4663],[-8.26586,32.43789],[-8.2927,32.42988],[-8.31517,32.4186],[-8.35195,32.3863],[-8.36642,32.3629],[-8.37832,32.3664],[-8.43579,32.35786],[-8.4387,32.3477],[-8.47056,32.34193],[-8.48064,32.32864],[-8.50675,32.33115],[-8.51707,32.31669],[-8.53302,32.31648],[-8.54262,32.29663],[-8.55706,32.2973],[-8.54821,32.33211],[-8.5767,32.35099],[-8.5985,32.39026],[-8.62247,32.44886],[-8.62982,32.47938],[-8.66309,32.51321],[-8.68911,32.52533],[-8.71435,32.52279],[-8.73334,32.50738],[-8.74721,32.50564],[-8.77926,32.51383],[-8.80302,32.51199],[-8.82583,32.49944],[-8.85212,32.49424],[-8.88794,32.50288],[-8.93249,32.52267],[-8.93127,32.52975],[-8.95032,32.54432],[-8.97148,32.56844],[-8.99466,32.58057],[-9.00688,32.6099],[-9.01841,32.60862],[-9.0037,32.65587],[-8.98019,32.67414],[-9.04874,32.72192],[-9.05932,32.72101]]]},"properties":{"shapeName":"Casablanca-Settat","shapeISO":"MA-06","shapeID":"70788906B33851053053385"}},
{"type":"Feature","geometry":{"type":"Polygon","coordinates":[[[-7.18452,31.42896],[-7.21787,31.41387],[-7.23922,31.3927],[-7.23391,31.37472],[-7.25284,31.34889],[-7.3056,31.31818],[-7.35171,31.29555],[-7.38648,31.28668],[-7.43583,31.29128],[-7.44721,31.27714],[-7.47778,31.27041],[-7.49877,31.25076],[-7.58409,31.24512],[-7.58993,31.2237],[-7.59911,31.20902],[-7.65014,31.19135],[-7.66254,31.17796],[-7.67868,31.17391],[-7.69687,31.16262],[-7.70034,31.14377],[-7.71218,31.13131],[-7.73179,31.13463],[-7.76982,31.1429],[-7.78347,31.16258],[-7.79326,31.15428],[-7.82493,31.16659],[-7.80968,31.14535],[-7.88695,31.10676],[-7.90312,31.08026],[-7.91635,31.03683],[-7.92711,31.03193],[-7.92827,31.00791],[-7.94699,30.95978],[-7.96334,30.93649],[-7.97854,30.92239],[-8.01456,30.9089],[-8.05989,30.92522],[-8.10782,30.92808],[-8.13624,30.93877],[-8.22159,30.91416],[-8.25028,30.88956],[-8.28177,30.88219],[-8.32643,30.87578],[-8.34904,30.86485],[-8.38697,30.86304],[-8.41411,30.87222],[-8.44751,30.86429],[-8.48413,30.87141],[-8.50921,30.87009],[-8.53837,30.87389],[-8.56845,30.88224],[-8.60429,30.8806],[-8.6465,30.88845],[-8.66143,30.90147],[-8.66945,30.89788],[-8.7061,30.866],[-8.72752,30.85626],[-8.72477,30.83865],[-8.72821,30.81403],[-8.74177,30.81072],[-8.76022,30.83791],[-8.76451,30.87284],[-8.7612,30.88869],[-8.76996,30.89877],[-8.77185,30.91277],[-8.7879,30.92665],[-8.7821,30.9374],[-8.79138,30.94184],[-8.80036,30.95862],[-8.81916,30.97347],[-8.84151,30.96827],[-8.8655,30.94944],[-8.91642,30.91492],[-8.95481,30.90436],[-8.98609,30.89007],[-8.99187,30.87361],[-8.99688,30.8254],[-9.02124,30.81926],[-9.07803,30.82647],[-9.13287,30.82789],[-9.15159,30.82189],[-9.16839,30.82768],[-9.19173,30.81752],[-9.2465,30.80236],[-9.27219,30.83193],[-9.29665,30.84394],[-9.33519,30.88819],[-9.34591,30.87444],[-9.34611,30.85514],[-9.38548,30.86599],[-9.40635,30.8615],[-9.41424,30.84925],[-9.44316,30.83847],[-9.49299,30.85748],[-9.51216,30.8694],[-9.52271,30.86247],[-9.53878,30.86755],[-9.53405,30.88217],[-9.54302,30.88451],[-9.56964,30.84144],[-9.58119,30.84308],[-9.5931,30.85772],[-9.60444,30.85672],[-9.63864,30.79994],[-9.65412,30.807],[-9.6881,30.78595],[-9.71559,30.79144],[-9.73877,30.84361],[-9.73419,30.87314],[-9.76688,30.88428],[-9.76584,30.91421],[-9.77099,30.92773],[-9.79511,30.93527],[-9.8179,30.93813],[-9.82502,30.96388],[-9.82432,30.97654],[-9.81489,30.99011],[-9.80812,31.01076],[-9.81708,31.02664],[-9.81638,31.04745],[-9.82487,31.06052],[-9.81734,31.08178],[-9.82174,31.09517],[-9.84188,31.10446],[-9.83406,31.12622],[-9.83889,31.14349],[-9.82063,31.1787],[-9.81561,31.19497],[-9.82368,31.21187],[-9.81634,31.22494],[-9.82058,31.23403],[-9.80004,31.27829],[-9.79534,31.32927],[-9.80281,31.36717],[-9.81639,31.38416],[-9.84251,31.39107],[-9.83252,31.4145],[-9.80619,31.43784],[-9.79177,31.45474],[-9.76448,31.50181],[-9.77242,31.51545],[-9.7622,31.51914],[-9.73541,31.54384],[-9.69034,31.5995],[-9.6776,31.62674],[-9.67437,31.6729],[-9.67608,31.69858],[-9.64809,31.72],[-9.62184,31.75117],[-9.60838,31.76267],[-9.58623,31.78901],[-9.58418,31.79802],[-9.56169,31.81615],[-9.5267,31.84995],[-9.52461,31.85819],[-9.49552,31.88316],[-9.46112,31.92196],[-9.43224,31.94725],[-9.37909,32.00244],[-9.34465,32.03353],[-9.34188,32.05056],[-9.32953,32.0666],[-9.32954,32.08456],[-9.31955,32.10339],[-9.32274,32.11102],[-9.26096,32.1754],[-9.25091,32.21861],[-9.26568,32.25175],[-9.24649,32.2883],[-9.24378,32.30038],[-9.25308,32.31971],[-9.28075,32.32993],[-9.28134,32.34512],[-9.29054,32.36248],[-9.2858,32.37619],[-9.25574,32.40594],[-9.24842,32.41748],[-9.23336,32.45796],[-9.23262,32.47957],[-9.26214,32.50408],[-9.27113,32.51627],[-9.27182,32.52848],[-9.28502,32.54061],[-9.27846,32.54777],[-9.19906,32.6032],[-9.14754,32.64143],[-9.09555,32.68437],[-9.05932,32.72101],[-9.04874,32.72192],[-8.98019,32.67414],[-9.0037,32.65587],[-9.01841,32.60862],[-9.00688,32.6099],[-8.99466,32.58057],[-8.97148,32.56844],[-8.95032,32.54432],[-8.93127,32.52975],[-8.93249,32.52267],[-8.88794,32.50288],[-8.85212,32.49424],[-8.82583,32.49944],[-8.80302,32.51199],[-8.77926,32.51383],[-8.74721,32.50564],[-8.73334,32.50738],[-8.71435,32.52279],[-8.68911,32.52533],[-8.66309,32.51321],[-8.62982,32.47938],[-8.62247,32.44886],[-8.5985,32.39026],[-8.5767,32.35099],[-8.54821,32.33211],[-8.55706,32.2973],[-8.54262,32.29663],[-8.53302,32.31648],[-8.51707,32.31669],[-8.50675,32.33115],[-8.48064,32.32864],[-8.47056,32.34193],[-8.4387,32.3477],[-8.43579,32.35786],[-8.37832,32.3664],[-8.36642,32.3629],[-8.35195,32.3863],[-8.31517,32.4186],[-8.2927,32.42988],[-8.26586,32.43789],[-8.19474,32.4663],[-8.1517,32.48896],[-8.13665,32.49044],[-8.11776,32.50209],[-8.09132,32.52801],[-8.0757,32.5514],[-8.05541,32.57267],[-8.05418,32.59197],[-8.06978,32.63354],[-8.07441,32.67682],[-8.0594,32.70654],[-8.04924,32.74643],[-8.04744,32.76801],[-8.03685,32.79088],[-7.99607,32.81425],[-7.99253,32.79822],[-7.97851,32.79556],[-7.97774,32.78654],[-7.9613,32.78065],[-7.9627,32.76489],[-7.95724,32.75529],[-7.9345,32.73643],[-7.93144,32.72643],[-7.91974,32.72522],[-7.92163,32.71322],[-7.90808,32.69117],[-7.89333,32.69137],[-7.87463,32.67064],[-7.84527,32.66078],[-7.81383,32.62897],[-7.77638,32.6053],[-7.75522,32.5976],[-7.72882,32.59656],[-7.71704,32.59077],[-7.73031,32.58851],[-7.71761,32.58149],[-7.71346,32.5692],[-7.7208,32.55857],[-7.69907,32.54862],[-7.69707,32.53002],[-7.68285,32.53378],[-7.68507,32.52257],[-7.66568,32.51189],[-7.67272,32.49759],[-7.65056,32.49559],[-7.64136,32.47795],[-7.6265,32.46843],[-7.59533,32.45626],[-7.56338,32.45574],[-7.54574,32.44568],[-7.52066,32.44734],[-7.50199,32.45434],[-7.50178,32.46834],[-7.48895,32.46728],[-7.48142,32.4578],[-7.48154,32.44224],[-7.46937,32.44087],[-7.46628,32.45784],[-7.4419,32.45661],[-7.42753,32.44642],[-7.41431,32.44646],[-7.3898,32.46157],[-7.37243,32.46207],[-7.33755,32.41795],[-7.33558,32.40463],[-7.32106,32.41167],[-7.30284,32.3973],[-7.28288,32.40242],[-7.26054,32.39086],[-7.25678,32.37363],[-7.24025,32.37378],[-7.23519,32.36623],[-7.22136,32.36738],[-7.2057,32.34959],[-7.19665,32.3466],[-7.18868,32.32954],[-7.18086,32.33584],[-7.15404,32.3277],[-7.14449,32.33555],[-7.13304,32.31927],[-7.12462,32.31572],[-7.11494,32.32409],[-7.10047,32.3053],[-7.11618,32.23195],[-7.10502,32.21333],[-7.11047,32.19103],[-7.12421,32.16192],[-7.12266,32.15342],[-7.13095,32.12911],[-7.12755,32.1016],[-7.11814,32.08565],[-7.11742,32.04595],[-7.11022,32.02033],[-7.08819,32.00584],[-7.0817,31.99678],[-7.05754,31.98257],[-7.05299,31.97254],[-7.06906,31.9654],[-7.06297,31.94098],[-7.06792,31.90752],[-7.05161,31.90426],[-7.05539,31.89348],[-7.02913,31.85973],[-7.02051,31.86069],[-7.02372,31.84617],[-7.01279,31.84676],[-7.00207,31.82131],[-7.01847,31.82017],[-7.03481,31.82761],[-7.0433,31.78754],[-7.0243,31.77436],[-7.04889,31.76073],[-7.10323,31.75985],[-7.1691,31.74365],[-7.19811,31.75825],[-7.21746,31.76181],[-7.22932,31.77304],[-7.22945,31.76186],[-7.2656,31.76148],[-7.26537,31.73931],[-7.28204,31.74739],[-7.28509,31.73372],[-7.31856,31.71301],[-7.3026,31.69526],[-7.32114,31.69344],[-7.31667,31.67028],[-7.26974,31.67334],[-7.2631,31.66246],[-7.26787,31.6327],[-7.26373,31.62147],[-7.22215,31.60846],[-7.20892,31.57735],[-7.19348,31.55954],[-7.13414,31.55772],[-7.13075,31.53678],[-7.13963,31.52913],[-7.14856,31.48253],[-7.15708,31.46752],[-7.17046,31.46685],[-7.18452,31.42896]]]},"properties":{"shapeName":"Marrakech-Safi","shapeISO":"MA-07","shapeID":"70788906B60308563647099"}},
{"type":"Feature","geometry":{"type":"Polygon","coordinates":[[[-14.90488,24.6832],[-14.88649,24.64254],[-14.86714,24.62211],[-14.82571,24.59007],[-14.78525,24.55486],[-14.74738,24.5443],[-14.70444,24.5383],[-14.66376,24.52589],[-14.6217,24.49873],[-14.60934,24.475],[-14.59046,24.4545],[-14.56317,24.43267],[-14.50611,24.41613],[-14.34197,24.46475],[-14.30482,24.47311],[-14.23907,24.47759],[-14.17236,24.47912],[-14.07589,24.48397],[-13.99297,24.47028],[-13.81152,24.42824],[-13.7348,24.39989],[-13.68897,24.39051],[-13.64106,24.40355],[-13.51335,24.43356],[-13.43713,24.46669],[-13.295,24.51271],[-13.12025,24.52723],[-13.05159,24.51567],[-12.93554,24.49115],[-12.88662,24.48162],[-12.85552,24.4693],[-12.73037,24.42722],[-12.68522,24.40726],[-12.63508,24.38949],[-12.61125,24.38325],[-12.58121,24.38006],[-12.53947,24.38359],[-12.35955,24.41968],[-12.31934,24.43286],[-12.26426,24.43854],[-12.20216,24.43219],[-12.11303,24.4159],[-12,24.38543],[-12.00083,24.33306],[-12.00028,24.09972],[-12,23.86611],[-12.00083,23.83333],[-12.00028,23.63278],[-12.00028,23.45444],[-12.15583,23.41639],[-12.26972,23.36278],[-12.36583,23.31861],[-12.57139,23.29139],[-12.745,23.1825],[-12.99833,23.02472],[-13.06361,22.94528],[-13.10528,22.89306],[-13.15029,22.75751],[-13.14444,22.73944],[-13.08399,22.53667],[-13.07563,22.45731],[-13.05639,22.17083],[-13.05139,22.08583],[-13.04083,21.93389],[-13.02722,21.74694],[-13.02111,21.64472],[-13.01556,21.57667],[-13.01056,21.49139],[-13.005,21.42333],[-12.99964,21.33672],[-13.54167,21.34083],[-13.68861,21.34139],[-13.90833,21.3425],[-14.10194,21.3425],[-14.12028,21.34194],[-14.28528,21.34222],[-14.46722,21.34056],[-14.68722,21.33861],[-14.85194,21.3375],[-15.17028,21.33694],[-15.33556,21.33722],[-15.61056,21.33806],[-15.89222,21.33861],[-15.91056,21.33944],[-16.21944,21.33917],[-16.36611,21.33917],[-16.49472,21.33972],[-16.56778,21.33917],[-16.94794,21.33417],[-16.96056,21.30056],[-16.9956,21.12807],[-17.01056,21.09167],[-17.03306,21.05861],[-17.03806,21.04333],[-17.03722,21.01667],[-17.04056,20.99333],[-17.06444,20.93528],[-17.06833,20.91549],[-17.0675,20.85056],[-17.05944,20.80833],[-17.04974,20.77003],[-17.06733,20.79317],[-17.08205,20.82512],[-17.09582,20.82683],[-17.10241,20.83471],[-17.10301,20.8494],[-17.09379,20.85665],[-17.07781,20.88782],[-17.08619,20.90964],[-17.09526,20.92253],[-17.08237,20.96365],[-17.07072,20.9802],[-17.06348,21.00158],[-17.06268,21.03507],[-17.06485,21.07839],[-17.05399,21.11623],[-17.05159,21.14204],[-17.04389,21.1626],[-17.05048,21.18473],[-17.04421,21.22996],[-17.03513,21.26142],[-17.03579,21.27402],[-17.02769,21.29133],[-17.03199,21.32671],[-17.0268,21.36005],[-17.01481,21.39117],[-17.01046,21.44426],[-16.99271,21.49986],[-16.99249,21.52633],[-16.98191,21.56023],[-16.97983,21.58587],[-16.98469,21.59136],[-16.98257,21.6199],[-16.97566,21.63471],[-16.9741,21.6615],[-16.97912,21.67289],[-16.98306,21.70818],[-16.98152,21.71756],[-16.95267,21.7535],[-16.95021,21.76511],[-16.96517,21.77408],[-16.96635,21.79637],[-16.96038,21.80684],[-16.95746,21.82738],[-16.9489,21.84292],[-16.92974,21.85837],[-16.91228,21.87778],[-16.90229,21.89486],[-16.89412,21.92728],[-16.89678,21.94291],[-16.88171,21.96596],[-16.87131,21.99362],[-16.87138,22.0026],[-16.86043,22.0303],[-16.84895,22.04668],[-16.83709,22.087],[-16.82375,22.11368],[-16.81223,22.15143],[-16.80612,22.16251],[-16.77709,22.17502],[-16.76992,22.19367],[-16.78189,22.20264],[-16.77392,22.20617],[-16.76151,22.22358],[-16.73351,22.24076],[-16.71756,22.25421],[-16.69883,22.28142],[-16.68096,22.29538],[-16.65249,22.29307],[-16.63675,22.26844],[-16.61747,22.26913],[-16.57753,22.27973],[-16.5408,22.29423],[-16.51131,22.31165],[-16.49409,22.32593],[-16.49506,22.34804],[-16.47587,22.36467],[-16.45971,22.3931],[-16.4612,22.40287],[-16.45237,22.4323],[-16.45143,22.45977],[-16.43981,22.48359],[-16.44047,22.49869],[-16.42764,22.52241],[-16.40606,22.53415],[-16.36983,22.56275],[-16.35988,22.57811],[-16.35882,22.60515],[-16.3435,22.65532],[-16.34555,22.66612],[-16.33981,22.69098],[-16.34405,22.72043],[-16.32927,22.77592],[-16.32353,22.77885],[-16.2971,22.81676],[-16.28751,22.8427],[-16.30161,22.85313],[-16.30024,22.86954],[-16.29375,22.87818],[-16.28503,22.90653],[-16.28053,22.89622],[-16.23162,22.90995],[-16.21172,22.91956],[-16.19282,22.93365],[-16.16111,22.96932],[-16.15101,22.98754],[-16.14259,23.0137],[-16.14195,23.03688],[-16.15205,23.06612],[-16.17368,23.08868],[-16.1878,23.09167],[-16.20803,23.08097],[-16.19831,23.10621],[-16.18242,23.12971],[-16.16293,23.14227],[-16.12429,23.19057],[-16.11403,23.21237],[-16.11762,23.2256],[-16.06354,23.30245],[-16.05926,23.31648],[-16.0652,23.32936],[-16.04808,23.341],[-16.00565,23.38007],[-15.97883,23.41963],[-15.95169,23.47669],[-15.96557,23.49046],[-15.96696,23.502],[-15.97601,23.50719],[-15.96402,23.51871],[-15.94635,23.52463],[-15.92502,23.55413],[-15.90685,23.56379],[-15.90097,23.57962],[-15.87649,23.61806],[-15.87686,23.62841],[-15.85762,23.63356],[-15.8416,23.65563],[-15.84012,23.66388],[-15.81523,23.6912],[-15.80304,23.70876],[-15.79339,23.73121],[-15.77898,23.7529],[-15.76383,23.76132],[-15.74702,23.77733],[-15.73824,23.8013],[-15.72985,23.8114],[-15.70986,23.82197],[-15.70923,23.83587],[-15.74208,23.83057],[-15.73035,23.8725],[-15.73731,23.87664],[-15.73875,23.90396],[-15.75103,23.91441],[-15.76715,23.88869],[-15.77285,23.89794],[-15.76381,23.91309],[-15.76899,23.92065],[-15.80018,23.88189],[-15.81783,23.88424],[-15.84594,23.86111],[-15.86398,23.83127],[-15.87357,23.82864],[-15.88478,23.80518],[-15.89477,23.79594],[-15.90047,23.77052],[-15.90638,23.76748],[-15.91171,23.73815],[-15.92374,23.70077],[-15.93571,23.68712],[-15.96731,23.66318],[-15.98611,23.62729],[-16.00059,23.63239],[-16.00696,23.645],[-15.98657,23.67244],[-15.95752,23.70602],[-15.95761,23.72396],[-15.93608,23.74112],[-15.9241,23.75741],[-15.92566,23.7683],[-15.91516,23.79986],[-15.90319,23.8196],[-15.87594,23.84557],[-15.84359,23.88513],[-15.80966,23.90987],[-15.80463,23.92228],[-15.78927,23.92879],[-15.74737,23.95921],[-15.66659,23.99631],[-15.65496,24.00561],[-15.62266,24.02294],[-15.59628,24.04099],[-15.57969,24.0601],[-15.58355,24.07497],[-15.57241,24.09469],[-15.54986,24.10619],[-15.52667,24.12738],[-15.51714,24.14687],[-15.50259,24.15587],[-15.44413,24.21616],[-15.3959,24.25639],[-15.36122,24.27649],[-15.3248,24.30849],[-15.31192,24.32782],[-15.29734,24.34046],[-15.27801,24.36469],[-15.25154,24.40592],[-15.22727,24.42913],[-15.21829,24.44201],[-15.18402,24.46703],[-15.16605,24.48815],[-15.1281,24.50762],[-15.06397,24.52929],[-15.03471,24.54088],[-15.00826,24.55749],[-15.00052,24.5737],[-15.00165,24.584],[-14.98884,24.60845],[-14.98701,24.62853],[-14.97842,24.63625],[-14.93983,24.654],[-14.90488,24.6832]]]},"properties":{"shapeName":"Dakhla-Oued Ed-Dahab","shapeISO":"MA-12","shapeID":"70788906B40522022577718"}},
{"type":"Feature","geometry":{"type":"Polygon","coordinates":[[[-6.2434,35.00139],[-6.21405,34.99696],[-6.18586,34.98888],[-6.13852,34.99703],[-6.12677,35.01046],[-6.10021,35.01552],[-6.0748,35.0078],[-6.05799,34.99816],[-6.06684,34.99055],[-6.05377,34.97648],[-6.02638,34.97648],[-6.007,34.99184],[-5.96204,34.96998],[-5.91945,34.94096],[-5.87831,34.93398],[-5.83322,34.94364],[-5.78131,34.92789],[-5.79117,34.88754],[-5.77447,34.87411],[-5.78439,34.85283],[-5.791,34.85067],[-5.79086,34.83523],[-5.78415,34.82496],[-5.78731,34.78875],[-5.78155,34.77786],[-5.79486,34.75075],[-5.77623,34.73484],[-5.75385,34.73533],[-5.74417,34.72655],[-5.72851,34.73047],[-5.71058,34.71864],[-5.71458,34.70475],[-5.70508,34.71128],[-5.6825,34.71269],[-5.66663,34.73435],[-5.64423,34.74006],[-5.62929,34.73626],[-5.63429,34.72604],[-5.60826,34.72088],[-5.59009,34.7216],[-5.57582,34.69329],[-5.55183,34.69364],[-5.5491,34.67281],[-5.54084,34.66812],[-5.5284,34.63861],[-5.51415,34.645],[-5.4942,34.63854],[-5.49093,34.63208],[-5.44482,34.62362],[-5.42204,34.60828],[-5.41274,34.58665],[-5.42939,34.57361],[-5.43527,34.55828],[-5.42773,34.53673],[-5.40892,34.53362],[-5.39485,34.52191],[-5.38699,34.52268],[-5.38939,34.53714],[-5.3439,34.52735],[-5.31515,34.5159],[-5.33154,34.50351],[-5.34459,34.48282],[-5.33524,34.48052],[-5.34554,34.4686],[-5.34064,34.46315],[-5.36073,34.44075],[-5.37746,34.44146],[-5.39388,34.41352],[-5.41715,34.40183],[-5.45562,34.39421],[-5.47008,34.38265],[-5.49565,34.37086],[-5.51968,34.37829],[-5.52887,34.37546],[-5.53275,34.3623],[-5.52005,34.35974],[-5.49309,34.34414],[-5.50444,34.33313],[-5.50477,34.32379],[-5.49006,34.31307],[-5.48236,34.32588],[-5.47189,34.3136],[-5.44305,34.30084],[-5.42988,34.26167],[-5.42255,34.25674],[-5.4362,34.2335],[-5.45091,34.23472],[-5.464,34.22619],[-5.47371,34.21206],[-5.4641,34.19134],[-5.44311,34.18454],[-5.45645,34.16507],[-5.46416,34.1651],[-5.469,34.14743],[-5.49089,34.1572],[-5.50352,34.15114],[-5.53148,34.15988],[-5.53457,34.13716],[-5.54213,34.1292],[-5.58198,34.10783],[-5.59449,34.1074],[-5.60447,34.12015],[-5.64191,34.12558],[-5.64833,34.11941],[-5.68403,34.11853],[-5.70455,34.12094],[-5.70658,34.14487],[-5.70133,34.17396],[-5.73041,34.16255],[-5.75142,34.15968],[-5.75098,34.16708],[-5.76797,34.16289],[-5.79338,34.21103],[-5.79517,34.19061],[-5.82948,34.18859],[-5.81439,34.15775],[-5.856,34.14266],[-5.87987,34.12023],[-5.88311,34.10319],[-5.85425,34.06446],[-5.83197,34.04986],[-5.8123,34.04566],[-5.7987,34.02423],[-5.8134,34.0135],[-5.79652,33.99441],[-5.77614,33.98107],[-5.75258,33.94623],[-5.76293,33.92789],[-5.774,33.92869],[-5.78089,33.90892],[-5.77798,33.89586],[-5.80085,33.89169],[-5.80747,33.87491],[-5.79001,33.85566],[-5.76747,33.85078],[-5.75323,33.83745],[-5.76336,33.81487],[-5.73407,33.80451],[-5.71459,33.78569],[-5.73229,33.75291],[-5.74171,33.70628],[-5.76319,33.69123],[-5.78546,33.66722],[-5.7776,33.6521],[-5.79177,33.61088],[-5.80431,33.60632],[-5.78611,33.57237],[-5.78044,33.55424],[-5.78344,33.53593],[-5.77972,33.51494],[-5.82367,33.49222],[-5.80083,33.47647],[-5.79214,33.48041],[-5.78676,33.4702],[-5.81622,33.41951],[-5.80611,33.39891],[-5.80754,33.37507],[-5.81706,33.36101],[-5.79575,33.34254],[-5.79437,33.33617],[-5.77417,33.33408],[-5.78812,33.32773],[-5.81214,33.30906],[-5.87961,33.31048],[-5.90829,33.31482],[-5.91729,33.32882],[-5.92535,33.3183],[-5.93355,33.33181],[-5.94777,33.3192],[-5.96456,33.33165],[-5.97566,33.3197],[-5.99209,33.32199],[-5.99484,33.30692],[-6.04238,33.30469],[-6.06996,33.3057],[-6.09088,33.31504],[-6.09415,33.32935],[-6.10294,33.33665],[-6.12931,33.34211],[-6.14186,33.33607],[-6.16336,33.33807],[-6.17777,33.34803],[-6.20315,33.3425],[-6.21368,33.35032],[-6.20807,33.36641],[-6.21243,33.40053],[-6.20614,33.43045],[-6.1973,33.43909],[-6.21363,33.44714],[-6.2374,33.44594],[-6.25122,33.45121],[-6.26262,33.44778],[-6.27913,33.45153],[-6.29502,33.46245],[-6.3152,33.46404],[-6.33121,33.47803],[-6.36021,33.48023],[-6.36052,33.41844],[-6.37336,33.40933],[-6.37775,33.38947],[-6.4034,33.36984],[-6.39186,33.34743],[-6.41181,33.32263],[-6.39703,33.29509],[-6.38147,33.27488],[-6.38381,33.256],[-6.40704,33.22674],[-6.43082,33.22526],[-6.46082,33.21804],[-6.47268,33.19671],[-6.49468,33.18609],[-6.50969,33.18734],[-6.52027,33.17535],[-6.52435,33.15696],[-6.5412,33.14883],[-6.55993,33.17524],[-6.59262,33.19133],[-6.61311,33.19377],[-6.66469,33.21242],[-6.7798,33.21515],[-6.79603,33.22391],[-6.80507,33.23568],[-6.79871,33.24949],[-6.79743,33.27559],[-6.80149,33.32266],[-6.80895,33.36824],[-6.80902,33.39708],[-6.80503,33.41506],[-6.79633,33.42723],[-6.8098,33.44327],[-6.82457,33.45282],[-6.82823,33.46292],[-6.82409,33.48544],[-6.79831,33.49875],[-6.78915,33.49654],[-6.77243,33.51332],[-6.75694,33.54272],[-6.77355,33.56228],[-6.79638,33.56187],[-6.81646,33.57181],[-6.82693,33.56857],[-6.85342,33.57208],[-6.87335,33.56894],[-6.89298,33.57428],[-6.90795,33.57192],[-6.91704,33.58315],[-6.93689,33.57998],[-6.94942,33.56499],[-6.94466,33.54804],[-6.95848,33.54432],[-6.98037,33.57053],[-6.97346,33.57164],[-6.99221,33.59102],[-6.992,33.60978],[-7.00395,33.61504],[-6.99777,33.63089],[-7.00532,33.65162],[-7.0134,33.65492],[-7.01888,33.67863],[-7.02919,33.68263],[-7.02145,33.70305],[-7.03038,33.73403],[-7.03725,33.74361],[-7.04343,33.76986],[-7.06249,33.78314],[-7.06026,33.79769],[-7.08206,33.79212],[-7.0994,33.79526],[-7.11081,33.81592],[-7.12602,33.83176],[-7.07913,33.86191],[-7.05222,33.86999],[-7.02296,33.88338],[-7.00146,33.89691],[-6.97751,33.9185],[-6.9531,33.93394],[-6.91368,33.965],[-6.90634,33.97448],[-6.85375,34.02324],[-6.83925,34.03419],[-6.81681,34.06074],[-6.79254,34.08105],[-6.7537,34.12785],[-6.71858,34.17612],[-6.70242,34.20346],[-6.67894,34.26074],[-6.64812,34.27024],[-6.65378,34.27435],[-6.67549,34.26525],[-6.64088,34.31502],[-6.55492,34.42818],[-6.52583,34.46915],[-6.49807,34.51379],[-6.41943,34.64702],[-6.39026,34.69813],[-6.36104,34.75383],[-6.34798,34.78318],[-6.30311,34.86834],[-6.2927,34.87309],[-6.28666,34.86243],[-6.28765,34.84369],[-6.29822,34.8436],[-6.27203,34.82789],[-6.27277,34.81863],[-6.24903,34.83759],[-6.25576,34.86012],[-6.28331,34.86865],[-6.28902,34.8757],[-6.29892,34.87303],[-6.2965,34.88379],[-6.26553,34.95459],[-6.2434,35.00139]]]},"properties":{"shapeName":"Rabat-Salé-Kenitra","shapeISO":"MA-04","shapeID":"70788906B15955360211262"}},
{"type":"Feature","geometry":{"type":"Polygon","coordinates":[[[-5.31515,34.5159],[-5.28082,34.51478],[-5.25619,34.53251],[-5.26711,34.54215],[-5.25861,34.55604],[-5.19771,34.55843],[-5.18385,34.5842],[-5.18265,34.59388],[-5.19621,34.59734],[-5.18213,34.60688],[-5.18315,34.6592],[-5.18867,34.66967],[-5.18076,34.69257],[-5.1856,34.70633],[-5.18109,34.73905],[-5.14494,34.76529],[-5.12462,34.7674],[-5.11213,34.77628],[-5.09019,34.77982],[-5.01655,34.80058],[-5.01219,34.79322],[-4.97548,34.79421],[-4.9509,34.80772],[-4.92112,34.81447],[-4.88494,34.8333],[-4.86305,34.8252],[-4.80696,34.83496],[-4.79057,34.84275],[-4.79218,34.82354],[-4.78757,34.80136],[-4.78746,34.77279],[-4.77842,34.75027],[-4.75429,34.73461],[-4.72386,34.71904],[-4.66629,34.71863],[-4.65906,34.7231],[-4.62782,34.72373],[-4.58855,34.71512],[-4.57782,34.69955],[-4.57299,34.6827],[-4.5408,34.70172],[-4.51877,34.69739],[-4.50568,34.70114],[-4.49271,34.6922],[-4.44345,34.67102],[-4.42095,34.69175],[-4.41615,34.7108],[-4.38082,34.70567],[-4.35435,34.71251],[-4.34255,34.71118],[-4.31503,34.72272],[-4.31237,34.73188],[-4.29739,34.73927],[-4.29364,34.7515],[-4.30443,34.76181],[-4.26098,34.79387],[-4.24805,34.80668],[-4.21177,34.76723],[-4.17059,34.75138],[-4.1548,34.75791],[-4.1434,34.74404],[-4.09938,34.76415],[-4.05896,34.79801],[-4.03444,34.8261],[-4.0137,34.8237],[-3.92796,34.84144],[-3.91948,34.85165],[-3.90417,34.85023],[-3.82946,34.86818],[-3.82012,34.88753],[-3.7923,34.8818],[-3.77013,34.88731],[-3.75977,34.88137],[-3.76358,34.86181],[-3.75221,34.84299],[-3.69529,34.84796],[-3.66847,34.84592],[-3.62683,34.8483],[-3.60463,34.84369],[-3.593,34.83035],[-3.59295,34.78905],[-3.61975,34.74102],[-3.61258,34.72247],[-3.59144,34.70134],[-3.61501,34.68996],[-3.63434,34.67379],[-3.64243,34.65853],[-3.64096,34.63323],[-3.66965,34.62459],[-3.70253,34.62555],[-3.7281,34.63893],[-3.73423,34.62622],[-3.75239,34.61746],[-3.77354,34.61993],[-3.75818,34.59068],[-3.76917,34.57496],[-3.74578,34.54669],[-3.76192,34.53004],[-3.77591,34.49849],[-3.79561,34.47515],[-3.84352,34.45604],[-3.85088,34.44606],[-3.84118,34.4404],[-3.85577,34.41137],[-3.83449,34.41307],[-3.84591,34.40459],[-3.83843,34.39395],[-3.85955,34.37114],[-3.84316,34.37144],[-3.84371,34.34312],[-3.83416,34.33805],[-3.8497,34.31682],[-3.86249,34.307],[-3.88748,34.30193],[-3.89472,34.30664],[-3.91718,34.30133],[-3.90946,34.28371],[-3.91437,34.27285],[-3.90838,34.26027],[-3.88871,34.25959],[-3.88315,34.25005],[-3.8889,34.24111],[-3.878,34.23139],[-3.89566,34.22518],[-3.85302,34.21692],[-3.83938,34.21091],[-3.81552,34.20989],[-3.83818,34.12721],[-3.83036,34.11763],[-3.83715,34.102],[-3.83766,34.0725],[-3.8415,34.05461],[-3.85114,34.03759],[-3.85254,34.0232],[-3.82487,34.00778],[-3.87721,33.9834],[-3.8924,33.97294],[-3.90658,33.92171],[-3.91139,33.91694],[-3.90186,33.88752],[-3.91806,33.84828],[-3.9277,33.83168],[-3.9549,33.81032],[-3.97585,33.78208],[-3.96606,33.78065],[-3.96842,33.76934],[-3.95936,33.73448],[-3.98939,33.72023],[-4.00964,33.71966],[-4.1034,33.68239],[-4.08014,33.675],[-4.08778,33.66361],[-4.12313,33.66379],[-4.11968,33.64926],[-4.10817,33.63857],[-4.08543,33.63905],[-4.08504,33.62387],[-4.10064,33.58679],[-4.11055,33.57615],[-4.10959,33.5614],[-4.09216,33.55519],[-4.05811,33.52625],[-4.03089,33.51689],[-4.01008,33.52387],[-3.98348,33.51314],[-3.94673,33.51464],[-3.93429,33.5282],[-3.93022,33.54575],[-3.89914,33.55021],[-3.88887,33.57087],[-3.87445,33.57071],[-3.84757,33.54231],[-3.84333,33.50942],[-3.79442,33.55748],[-3.80883,33.57072],[-3.82256,33.57],[-3.85733,33.59336],[-3.80284,33.65678],[-3.73661,33.67767],[-3.71155,33.70144],[-3.69316,33.72797],[-3.65081,33.74079],[-3.6119,33.78732],[-3.58704,33.81289],[-3.57592,33.82939],[-3.5424,33.86796],[-3.53228,33.89474],[-3.51639,33.90957],[-3.49325,33.9058],[-3.46644,33.87751],[-3.42947,33.86255],[-3.42027,33.8479],[-3.37947,33.8323],[-3.36391,33.8123],[-3.33089,33.78691],[-3.30198,33.7778],[-3.27656,33.77573],[-3.2345,33.76371],[-3.19067,33.76017],[-3.15303,33.7645],[-3.09428,33.76166],[-3.04508,33.76544],[-3.03238,33.73147],[-3.05842,33.70635],[-3.09102,33.6902],[-3.12339,33.66017],[-3.12044,33.63345],[-3.15253,33.60306],[-3.17501,33.59117],[-3.19046,33.57036],[-3.21367,33.56522],[-3.22693,33.55365],[-3.22793,33.53466],[-3.24509,33.52764],[-3.25728,33.51666],[-3.12069,33.40572],[-3.06976,33.36837],[-3.04082,33.34308],[-2.9992,33.31764],[-2.93543,33.2557],[-2.90572,33.21653],[-2.899,33.19964],[-2.90695,33.17701],[-2.9415,33.15244],[-2.9785,33.13258],[-3.02867,33.1138],[-3.14447,33.09392],[-3.23413,33.07736],[-3.34091,33.05967],[-3.43584,33.05657],[-3.51461,33.08515],[-3.55965,33.09762],[-3.57562,33.10844],[-3.60351,33.09453],[-3.61699,33.07831],[-3.64969,33.05743],[-3.68275,33.02694],[-3.71296,32.97939],[-3.72741,32.94771],[-3.74986,32.9256],[-3.79887,32.89575],[-3.83034,32.86649],[-3.86818,32.82388],[-3.91125,32.76307],[-3.94745,32.71852],[-3.97854,32.68849],[-4.01593,32.64076],[-4.01816,32.60844],[-4.05787,32.60056],[-4.10358,32.62304],[-4.17408,32.60105],[-4.21682,32.61378],[-4.24227,32.65712],[-4.28503,32.71475],[-4.3242,32.75042],[-4.37134,32.78687],[-4.40533,32.81064],[-4.46409,32.84235],[-4.48723,32.86755],[-4.4775,32.88272],[-4.52374,32.89548],[-4.55809,32.89627],[-4.623,32.87968],[-4.65647,32.88055],[-4.71383,32.89237],[-4.76979,32.91225],[-4.77295,32.9271],[-4.75502,32.95995],[-4.76643,33.00038],[-4.77459,33.01802],[-4.80832,33.04761],[-4.82145,33.07266],[-4.82774,33.09795],[-4.84564,33.07592],[-4.86334,33.07433],[-4.89277,33.0792],[-4.99645,33.08316],[-5.01719,33.07363],[-5.05524,33.04078],[-5.07172,33.02373],[-5.05685,32.98089],[-5.09285,32.95953],[-5.12747,32.94548],[-5.13289,32.91759],[-5.14186,32.90886],[-5.16871,32.90467],[-5.19022,32.91552],[-5.22984,32.88362],[-5.25455,32.86937],[-5.27238,32.86518],[-5.24869,32.90464],[-5.24123,32.92394],[-5.2516,32.94092],[-5.27326,32.96661],[-5.30598,32.98549],[-5.30645,32.99227],[-5.28814,33.00388],[-5.29064,33.02985],[-5.3193,33.03501],[-5.3297,33.08324],[-5.29888,33.09753],[-5.28367,33.12961],[-5.27966,33.16155],[-5.29709,33.1757],[-5.34104,33.15995],[-5.36742,33.15298],[-5.4182,33.15645],[-5.44773,33.16469],[-5.48601,33.19403],[-5.4893,33.23496],[-5.51244,33.2564],[-5.50017,33.30335],[-5.50715,33.31014],[-5.50639,33.32495],[-5.5166,33.31932],[-5.52474,33.33917],[-5.54308,33.34361],[-5.53881,33.34945],[-5.55244,33.36302],[-5.57257,33.36921],[-5.58068,33.38727],[-5.59659,33.38874],[-5.60698,33.38222],[-5.67921,33.39612],[-5.72314,33.41226],[-5.73696,33.42152],[-5.74805,33.4169],[-5.75455,33.42846],[-5.77378,33.44092],[-5.78676,33.4702],[-5.79214,33.48041],[-5.80083,33.47647],[-5.82367,33.49222],[-5.77972,33.51494],[-5.78344,33.53593],[-5.78044,33.55424],[-5.78611,33.57237],[-5.80431,33.60632],[-5.79177,33.61088],[-5.7776,33.6521],[-5.78546,33.66722],[-5.76319,33.69123],[-5.74171,33.70628],[-5.73229,33.75291],[-5.71459,33.78569],[-5.73407,33.80451],[-5.76336,33.81487],[-5.75323,33.83745],[-5.76747,33.85078],[-5.79001,33.85566],[-5.80747,33.87491],[-5.80085,33.89169],[-5.77798,33.89586],[-5.78089,33.90892],[-5.774,33.92869],[-5.76293,33.92789],[-5.75258,33.94623],[-5.77614,33.98107],[-5.79652,33.99441],[-5.8134,34.0135],[-5.7987,34.02423],[-5.8123,34.04566],[-5.83197,34.04986],[-5.85425,34.06446],[-5.88311,34.10319],[-5.87987,34.12023],[-5.856,34.14266],[-5.81439,34.15775],[-5.82948,34.18859],[-5.79517,34.19061],[-5.79338,34.21103],[-5.76797,34.16289],[-5.75098,34.16708],[-5.75142,34.15968],[-5.73041,34.16255],[-5.70133,34.17396],[-5.70658,34.14487],[-5.70455,34.12094],[-5.68403,34.11853],[-5.64833,34.11941],[-5.64191,34.12558],[-5.60447,34.12015],[-5.59449,34.1074],[-5.58198,34.10783],[-5.54213,34.1292],[-5.53457,34.13716],[-5.53148,34.15988],[-5.50352,34.15114],[-5.49089,34.1572],[-5.469,34.14743],[-5.46416,34.1651],[-5.45645,34.16507],[-5.44311,34.18454],[-5.4641,34.19134],[-5.47371,34.21206],[-5.464,34.22619],[-5.45091,34.23472],[-5.4362,34.2335],[-5.42255,34.25674],[-5.42988,34.26167],[-5.44305,34.30084],[-5.47189,34.3136],[-5.48236,34.32588],[-5.49006,34.31307],[-5.50477,34.32379],[-5.50444,34.33313],[-5.49309,34.34414],[-5.52005,34.35974],[-5.53275,34.3623],[-5.52887,34.37546],[-5.51968,34.37829],[-5.49565,34.37086],[-5.47008,34.38265],[-5.45562,34.39421],[-5.41715,34.40183],[-5.39388,34.41352],[-5.37746,34.44146],[-5.36073,34.44075],[-5.34064,34.46315],[-5.34554,34.4686],[-5.33524,34.48052],[-5.34459,34.48282],[-5.33154,34.50351],[-5.31515,34.5159]]]},"properties":{"shapeName":"Fez-Meknes","shapeISO":"MA-03","shapeID":"70788906B83815134303720"}},
{"type":"Feature","geometry":{"type":"Polygon","coordinates":[[[-5.25455,32.86937],[-5.24928,32.85651],[-5.26245,32.85419],[-5.28769,32.83972],[-5.29704,32.82102],[-5.31163,32.80709],[-5.2991,32.79521],[-5.31129,32.78691],[-5.31798,32.76418],[-5.313,32.74491],[-5.31463,32.71928],[-5.32142,32.69899],[-5.31309,32.67262],[-5.32382,32.63013],[-5.32227,32.61748],[-5.34639,32.60237],[-5.3391,32.57373],[-5.34819,32.55506],[-5.35497,32.51549],[-5.39798,32.52476],[-5.40484,32.5153],[-5.39385,32.49862],[-5.39617,32.48254],[-5.41042,32.46567],[-5.44432,32.45727],[-5.47574,32.45401],[-5.5359,32.45399],[-5.52792,32.43642],[-5.53633,32.42051],[-5.52472,32.39087],[-5.52677,32.36753],[-5.53394,32.36191],[-5.47397,32.3464],[-5.48297,32.32972],[-5.50884,32.3024],[-5.4998,32.2736],[-5.48337,32.2597],[-5.45549,32.24329],[-5.44699,32.21717],[-5.45788,32.21404],[-5.50884,32.22599],[-5.5372,32.23822],[-5.56317,32.23993],[-5.58721,32.22139],[-5.63869,32.2159],[-5.67795,32.21382],[-5.68847,32.19858],[-5.71841,32.17676],[-5.74707,32.14459],[-5.80267,32.1275],[-5.84369,32.13234],[-5.85796,32.11798],[-5.86827,32.09805],[-5.86672,32.08659],[-5.8753,32.06284],[-5.88217,32.0291],[-5.88818,31.98342],[-5.82587,31.96374],[-5.80267,31.9389],[-5.79858,31.92805],[-5.82396,31.89373],[-5.82538,31.86837],[-5.81729,31.85757],[-5.8554,31.83931],[-5.89436,31.8321],[-5.92062,31.82112],[-5.96616,31.75111],[-5.98005,31.73997],[-6.01771,31.72021],[-6.06029,31.70571],[-6.12259,31.69121],[-6.21089,31.65707],[-6.26135,31.63622],[-6.31385,31.62001],[-6.35603,31.60307],[-6.39646,31.59114],[-6.42346,31.5788],[-6.44973,31.54763],[-6.47515,31.54889],[-6.49513,31.53582],[-6.5316,31.52351],[-6.56332,31.50785],[-6.63293,31.46149],[-6.66215,31.46166],[-6.70101,31.46948],[-6.70335,31.41835],[-6.71874,31.35774],[-6.73305,31.34882],[-6.8092,31.34334],[-6.92374,31.34501],[-6.97258,31.35118],[-6.99593,31.3493],[-7.00899,31.33899],[-7.03434,31.38719],[-7.03914,31.39027],[-7.06077,31.37034],[-7.10249,31.36492],[-7.12685,31.36647],[-7.13871,31.38075],[-7.15566,31.4283],[-7.17373,31.41689],[-7.18452,31.42896],[-7.17046,31.46685],[-7.15708,31.46752],[-7.14856,31.48253],[-7.13963,31.52913],[-7.13075,31.53678],[-7.13414,31.55772],[-7.19348,31.55954],[-7.20892,31.57735],[-7.22215,31.60846],[-7.26373,31.62147],[-7.26787,31.6327],[-7.2631,31.66246],[-7.26974,31.67334],[-7.31667,31.67028],[-7.32114,31.69344],[-7.3026,31.69526],[-7.31856,31.71301],[-7.28509,31.73372],[-7.28204,31.74739],[-7.26537,31.73931],[-7.2656,31.76148],[-7.22945,31.76186],[-7.22932,31.77304],[-7.21746,31.76181],[-7.19811,31.75825],[-7.1691,31.74365],[-7.10323,31.75985],[-7.04889,31.76073],[-7.0243,31.77436],[-7.0433,31.78754],[-7.03481,31.82761],[-7.01847,31.82017],[-7.00207,31.82131],[-7.01279,31.84676],[-7.02372,31.84617],[-7.02051,31.86069],[-7.02913,31.85973],[-7.05539,31.89348],[-7.05161,31.90426],[-7.06792,31.90752],[-7.06297,31.94098],[-7.06906,31.9654],[-7.05299,31.97254],[-7.05754,31.98257],[-7.0817,31.99678],[-7.08819,32.00584],[-7.11022,32.02033],[-7.11742,32.04595],[-7.11814,32.08565],[-7.12755,32.1016],[-7.13095,32.12911],[-7.12266,32.15342],[-7.12421,32.16192],[-7.11047,32.19103],[-7.10502,32.21333],[-7.11618,32.23195],[-7.10047,32.3053],[-7.11494,32.32409],[-7.12462,32.31572],[-7.13304,32.31927],[-7.10553,32.35298],[-7.04068,32.37365],[-7.03444,32.39807],[-6.99999,32.47151],[-6.99221,32.49946],[-6.99469,32.52023],[-7.01512,32.55661],[-6.99629,32.56049],[-6.98649,32.63569],[-7.01308,32.65582],[-7.03001,32.67671],[-7.05592,32.69871],[-7.04258,32.74009],[-7.02241,32.77042],[-7.03441,32.77013],[-7.02892,32.78859],[-7.01284,32.81085],[-6.99987,32.8478],[-7.00605,32.92232],[-6.99872,32.93837],[-7.00826,32.94743],[-7.00255,32.95612],[-6.98129,32.94978],[-6.96881,32.95262],[-6.94286,32.99175],[-6.94442,33.00891],[-6.92255,33.04871],[-6.93219,33.05697],[-6.9031,33.07673],[-6.91379,33.10164],[-6.89516,33.10575],[-6.89254,33.14149],[-6.88368,33.15923],[-6.86913,33.20167],[-6.84129,33.22435],[-6.80507,33.23568],[-6.79603,33.22391],[-6.7798,33.21515],[-6.66469,33.21242],[-6.61311,33.19377],[-6.59262,33.19133],[-6.55993,33.17524],[-6.5412,33.14883],[-6.52435,33.15696],[-6.52027,33.17535],[-6.50969,33.18734],[-6.49468,33.18609],[-6.47268,33.19671],[-6.46082,33.21804],[-6.43082,33.22526],[-6.40704,33.22674],[-6.38381,33.256],[-6.38147,33.27488],[-6.39703,33.29509],[-6.41181,33.32263],[-6.39186,33.34743],[-6.4034,33.36984],[-6.37775,33.38947],[-6.37336,33.40933],[-6.36052,33.41844],[-6.36021,33.48023],[-6.33121,33.47803],[-6.3152,33.46404],[-6.29502,33.46245],[-6.27913,33.45153],[-6.26262,33.44778],[-6.25122,33.45121],[-6.2374,33.44594],[-6.21363,33.44714],[-6.1973,33.43909],[-6.20614,33.43045],[-6.21243,33.40053],[-6.20807,33.36641],[-6.21368,33.35032],[-6.20315,33.3425],[-6.17777,33.34803],[-6.16336,33.33807],[-6.14186,33.33607],[-6.12931,33.34211],[-6.10294,33.33665],[-6.09415,33.32935],[-6.09088,33.31504],[-6.06996,33.3057],[-6.04238,33.30469],[-5.99484,33.30692],[-5.99209,33.32199],[-5.97566,33.3197],[-5.96456,33.33165],[-5.94777,33.3192],[-5.93355,33.33181],[-5.92535,33.3183],[-5.91729,33.32882],[-5.90829,33.31482],[-5.87961,33.31048],[-5.81214,33.30906],[-5.78812,33.32773],[-5.77417,33.33408],[-5.79437,33.33617],[-5.79575,33.34254],[-5.81706,33.36101],[-5.80754,33.37507],[-5.80611,33.39891],[-5.81622,33.41951],[-5.78676,33.4702],[-5.77378,33.44092],[-5.75455,33.42846],[-5.74805,33.4169],[-5.73696,33.42152],[-5.72314,33.41226],[-5.67921,33.39612],[-5.60698,33.38222],[-5.59659,33.38874],[-5.58068,33.38727],[-5.57257,33.36921],[-5.55244,33.36302],[-5.53881,33.34945],[-5.54308,33.34361],[-5.52474,33.33917],[-5.5166,33.31932],[-5.50639,33.32495],[-5.50715,33.31014],[-5.50017,33.30335],[-5.51244,33.2564],[-5.4893,33.23496],[-5.48601,33.19403],[-5.44773,33.16469],[-5.4182,33.15645],[-5.36742,33.15298],[-5.34104,33.15995],[-5.29709,33.1757],[-5.27966,33.16155],[-5.28367,33.12961],[-5.29888,33.09753],[-5.3297,33.08324],[-5.3193,33.03501],[-5.29064,33.02985],[-5.28814,33.00388],[-5.30645,32.99227],[-5.30598,32.98549],[-5.27326,32.96661],[-5.2516,32.94092],[-5.24123,32.92394],[-5.24869,32.90464],[-5.27238,32.86518],[-5.25455,32.86937]]]},"properties":{"shapeName":"Béni Mellal-Khénifra","shapeISO":"MA-05","shapeID":"70788906B63032885328780"}}
]}